{"type":"Topology","arcs":[[[3223,3925],[25,-50],[16,-33]],[[3264,3842],[-59,-49]],[[3205,3793],[-49,-23]],[[3156,3770],[-54,36]],[[3102,3806],[-8,7]],[[3094,3813],[0,28],[18,48],[56,20]],[[3168,3909],[55,16]],[[3298,4155],[-5,-40],[-84,-4]],[[3209,4111],[-31,134],[60,38],[21,-69],[39,-59]],[[2859,4278],[7,110]],[[2866,4388],[18,-6],[15,-105],[-40,1]],[[4824,4000],[-52,-10],[-35,-96],[-57,59],[12,90],[-65,52]],[[4627,4095],[59,31]],[[4686,4126],[138,-126]],[[4627,4095],[-28,-61],[-44,-46],[-53,-14],[-41,-50],[-49,-2],[2,61],[-72,8],[-37,-73]],[[4305,3918],[-67,23],[-22,30]],[[4216,3971],[27,40],[18,112]],[[4261,4123],[106,59]],[[4367,4182],[56,27],[57,-42],[33,23],[113,19],[60,-83]],[[4222,4520],[1,-125]],[[4223,4395],[-53,11],[-63,-16],[-60,56],[-16,55],[47,17],[58,76],[37,-2],[49,-72]],[[4143,3020],[-60,-74],[-30,59],[8,41],[82,-26]],[[2179,433],[-38,23],[10,67]],[[2151,523],[82,-28],[-10,-51],[-44,-11]],[[3738,1940],[-4,-95],[56,-97]],[[3790,1748],[-125,-39],[-36,69],[18,89],[24,46]],[[3671,1913],[67,27]],[[4567,2192],[20,-46]],[[4587,2146],[-43,-22],[-53,50],[76,18]],[[5338,1772],[-25,-21],[-99,18]],[[5214,1769],[8,44],[116,-41]],[[5139,1765],[-48,-82],[-59,-11],[-83,43]],[[4949,1715],[66,85]],[[5015,1800],[94,-13],[30,-22]],[[5218,1602],[-19,-63],[-63,24],[-66,-2],[56,70],[-19,49]],[[5107,1680],[56,32],[57,-47],[-2,-63]],[[4388,1596],[-70,-59]],[[4318,1537],[-40,24]],[[4278,1561],[33,21],[-8,78]],[[4303,1660],[12,31],[77,-28],[-4,-67]],[[4152,1699],[21,-56]],[[4173,1643],[10,-71]],[[4183,1572],[-121,-7],[-47,18],[-103,0],[-12,-40],[-44,-8]],[[3856,1535],[2,45],[-38,29],[21,58],[-40,88]],[[3801,1755],[19,32],[54,-29],[28,20],[106,-10],[76,-23],[68,-46]],[[4207,1680],[-34,-37]],[[4152,1699],[55,-19]],[[4501,1720],[-12,-29]],[[4489,1691],[-10,2]],[[4479,1693],[-75,35]],[[4404,1728],[48,11],[49,-19]],[[4479,1693],[-45,-32],[-15,-56],[-31,-9]],[[4303,1660],[-28,117]],[[4275,1777],[80,37],[9,-75],[40,-11]],[[4278,1561],[-95,11]],[[4207,1680],[51,50],[-18,47]],[[4240,1777],[35,0]],[[4436,2412],[-33,-83],[-6,-77]],[[4397,2252],[-38,23],[-58,-4],[-44,60]],[[4257,2331],[25,36],[2,69],[79,66]],[[4363,2502],[24,3]],[[4387,2505],[49,-93]],[[4728,1039],[31,-15],[29,-84]],[[4788,940],[-113,32]],[[4675,972],[-18,40],[71,27]],[[3942,1030],[-72,56]],[[3870,1086],[45,31],[54,-62],[-27,-25]],[[3976,904],[61,-37],[68,-15],[24,-37],[-56,-43],[-17,-59],[-73,-23],[-118,101],[10,48],[74,34],[27,31]],[[3335,3810],[46,2],[134,11]],[[3515,3823],[16,-17],[-2,-107],[15,-52]],[[3544,3647],[-53,-47],[-55,-13],[-59,-78],[-85,-42],[1,-61]],[[3293,3406],[-96,-57],[-65,56],[-43,-2]],[[3089,3403],[20,49],[-55,33],[31,56],[51,36],[52,-1],[56,59],[31,3],[9,68],[-67,28],[-12,59]],[[3264,3842],[71,-32]],[[3089,3403],[-17,-14]],[[3072,3389],[-70,16],[-16,71],[-67,80]],[[2919,3556],[27,63],[-73,70],[-32,6]],[[2841,3695],[-23,38],[5,6],[4,3]],[[2827,3742],[115,12]],[[2942,3754],[48,-18],[65,25]],[[3055,3761],[71,-11],[30,20]],[[3270,3215],[-158,-75],[26,-69],[78,-79],[39,-17],[40,141],[38,-7]],[[3333,3109],[44,-56],[-7,-179],[-35,-39],[17,-38]],[[3352,2797],[-49,-18],[-2,-57],[-69,-24],[-92,-68]],[[3140,2630],[-60,3],[-58,89],[-74,-2],[-22,-41]],[[2926,2679],[-56,-6],[-72,48],[-52,62],[79,63],[53,3],[10,83],[-63,-39],[-4,50],[42,70],[3,50],[35,58],[-35,32],[-72,26],[20,81],[-12,25]],[[2802,3285],[33,45],[72,32],[91,-18],[28,-53],[45,34],[1,64]],[[3293,3406],[-4,-50],[-54,-54],[35,-87]],[[1909,1087],[53,-18],[27,-54],[-20,-90],[42,-42],[47,-182],[72,-105],[-1,-62]],[[2129,534],[-18,-115],[-51,31],[-81,0],[-23,-31],[-136,-16],[-46,13],[-26,-114],[-41,6],[-78,-93],[-42,21],[-29,-51],[23,-82],[-69,-55],[-28,-48],[-68,140],[-107,47],[-41,-23],[-18,-63],[-64,-17],[-25,37],[3,66],[110,99],[93,11],[44,20],[109,115],[5,67],[65,41],[14,94],[99,78],[47,2],[19,81],[54,30],[17,49],[59,46],[-5,138],[15,29]],[[3790,1748],[11,7]],[[3856,1535],[-22,-15],[-1,-76],[-46,4],[-52,-41],[40,-110],[-2,-133],[-21,-60],[-111,73],[-78,-22]],[[3563,1155],[-93,-51],[-90,141],[-53,9]],[[3327,1254],[-24,45],[42,62],[34,89],[-28,80]],[[3351,1530],[-4,116],[3,65],[24,46],[-13,57]],[[3361,1814],[42,28],[35,-15],[61,93],[51,-38],[23,35],[41,-21],[57,17]],[[4653,2494],[-60,-43],[-25,-81],[-35,-13],[-97,55]],[[4387,2505],[66,66],[33,68],[31,10]],[[4517,2649],[52,-58],[6,-42],[57,4],[21,-59]],[[4653,2494],[68,-52],[-8,-64]],[[4713,2378],[-158,-167],[12,-19]],[[4587,2146],[-127,-54]],[[4460,2092],[-18,50],[-77,42],[32,68]],[[4460,2092],[-18,-22],[-80,16],[24,-62],[74,-35],[-6,-26],[40,-125]],[[4494,1838],[15,-45],[-8,-73]],[[4240,1777],[-26,30],[-7,64],[44,58],[-5,42],[-42,45],[-81,-2],[-28,42],[39,56],[-19,55],[-16,136]],[[4099,2303],[-3,34],[109,41],[52,-47]],[[4498,3005],[1,0]],[[4499,3005],[1,-65],[49,-4],[1,-60],[37,-22],[-4,-81],[-51,-55],[-15,-69]],[[4363,2502],[-14,52],[-47,16],[-10,64],[17,52],[-53,52],[-18,65]],[[4238,2803],[20,75],[72,-18],[28,15],[34,49],[65,28],[41,53]],[[4099,2303],[-50,-41],[-56,1],[-18,81],[42,53],[-54,79]],[[3963,2476],[49,33],[-8,42],[32,34],[27,101],[-17,46],[159,90],[33,-19]],[[3164,5477],[-46,10],[-33,-42],[-100,23],[-106,-100],[-24,-54],[-14,-98],[51,-19],[-12,-73],[-84,-113],[-24,-85],[-30,-35],[8,-60]],[[2750,4831],[3,-32],[-62,-56],[-63,105],[-2,60],[-136,194],[30,46],[12,111],[40,76],[45,45],[24,122],[73,82],[51,15],[34,-25],[57,58],[2,0],[5,8]],[[2863,5640],[17,50],[43,15],[65,67],[107,91]],[[3095,5863],[21,-59],[111,-109],[-57,-26],[-6,-192]],[[3336,5416],[-27,-104],[42,-53],[-10,-61],[84,-71],[2,-85]],[[3427,5042],[-51,-7],[-37,-35],[6,-49],[-18,-151],[-86,-17]],[[3241,4783],[-73,-35],[-40,7],[-27,-45],[-76,41],[-25,-26]],[[3000,4725],[-55,-27],[-48,5],[-23,46],[-45,-86],[-43,-42],[-44,31],[28,134],[-20,45]],[[3164,5477],[55,-39],[47,36],[70,-58]],[[4678,4706],[-11,-29],[-126,6],[-62,-58],[-24,10],[-80,-71],[-123,-16],[-30,-28]],[[4223,4395],[-15,-22],[12,-106],[-21,-73],[-49,-8],[-7,-42]],[[4143,4144],[-116,-40]],[[4027,4104],[-9,80],[-36,55],[6,25],[-39,104],[27,10],[3,78],[-58,9],[-23,-35],[-120,-9],[-68,8],[-98,59],[-55,-12],[-9,-92],[-42,-23]],[[3506,4361],[-42,74],[-46,22],[-29,52],[-41,-9],[-52,85],[-57,29],[-63,58],[65,111]],[[3427,5042],[80,19],[65,-24],[97,35],[8,54],[53,5]],[[3730,5131],[55,-18],[41,-56],[71,18],[58,-25],[70,51],[56,-8],[124,-18],[45,12],[58,68]],[[4308,5155],[78,-65],[62,-21],[33,-40],[67,-129],[30,-92],[66,-36],[34,-66]],[[2904,1508],[114,-5],[73,19],[45,-39],[44,22],[67,-32],[104,57]],[[3327,1254],[-35,-83],[24,-29],[-72,-33],[-29,50],[-65,-20],[-1,-55],[-35,-45],[-84,-39],[-63,-3],[-41,-33]],[[2926,964],[-53,34],[-11,65],[-86,2],[-148,135],[-124,-17],[-21,47],[-100,65],[-22,68],[73,4],[2,60]],[[2436,1427],[144,-10],[60,-47],[79,-3],[80,33],[49,-9],[47,28],[-12,44],[21,45]],[[4802,1784],[1,-9]],[[4803,1775],[-40,-24]],[[4763,1751],[-4,-2]],[[4759,1749],[-12,50]],[[4747,1799],[28,15]],[[4775,1814],[27,-30]],[[5359,1081],[-50,4],[-74,-64],[-179,-58],[-75,-91],[-33,0],[-160,68]],[[4728,1039],[12,100],[58,5],[7,104],[26,74]],[[4831,1322],[15,3]],[[4846,1325],[52,6],[25,-37],[99,9],[94,-103],[63,-31],[58,17],[74,-31],[48,-74]],[[5496,2231],[139,-15],[-55,-59],[20,-74],[-65,-48],[-54,-6],[-38,72],[-51,-33],[-14,-53],[42,-32],[-9,-108],[-48,-12],[-34,-39],[9,-52]],[[5214,1769],[-47,-31],[-28,27]],[[5015,1800],[-57,75],[-56,-10]],[[4902,1865],[-42,-21],[-33,27],[-21,20]],[[4806,1891],[0,38]],[[4806,1929],[-1,69],[26,35],[76,25],[18,98],[-32,0],[-11,99],[-25,37]],[[4857,2292],[86,99],[48,0],[44,-49],[37,17]],[[5072,2359],[63,-12],[117,38],[55,-132],[50,-11],[48,18],[91,-29]],[[3685,2414],[65,-93],[-1,-49]],[[3749,2272],[13,-72],[-25,-64],[2,-69],[-24,-24],[23,-103]],[[3361,1814],[-58,29],[-14,41],[-100,46]],[[3189,1930],[-77,-51]],[[3112,1879],[-16,105],[24,107]],[[3120,2091],[135,80],[-35,94],[92,45]],[[3312,2310],[15,-50],[48,-11],[41,59],[80,-6],[126,45],[63,67]],[[4318,1537],[30,-85],[-48,-12],[-30,-38],[63,-139]],[[4333,1263],[-93,-73],[-39,-147],[16,-51]],[[4217,992],[-57,-16],[-58,14],[-18,-79],[-105,76],[-37,43]],[[3870,1086],[98,-116],[-12,-45],[-103,-35],[-49,-41],[-71,22]],[[3733,871],[-60,30],[-12,35],[-2,76],[-96,143]],[[4806,1929],[-60,13],[-49,-27],[-78,-35]],[[4619,1880],[-63,-26],[-62,-16]],[[4713,2378],[20,-68],[68,48],[38,-11],[18,-55]],[[4956,1702],[34,-28],[69,-12],[48,18]],[[5218,1602],[60,11],[25,-41],[84,-24],[87,26],[261,25],[-10,-68],[-35,-14],[22,-93],[-18,-101],[-116,-72],[-86,-19],[-42,-39],[-20,-62],[9,-62],[-80,12]],[[4846,1325],[-11,81],[5,87]],[[4840,1493],[61,59],[8,71],[47,79]],[[5390,1632],[31,-49],[-117,-3],[-11,85],[97,-33]],[[3506,4361],[-10,-27],[-42,-30],[-29,-86],[17,-46]],[[3442,4172],[-10,-45],[-54,24],[-16,-54],[-64,58]],[[3209,4111],[-73,-37],[-41,11],[-25,-93]],[[3070,3992],[-61,-40],[-41,21],[-101,43],[11,66],[57,64],[-5,34]],[[2930,4180],[9,48],[-68,18],[-12,32]],[[2866,4388],[-2,52],[125,41],[-34,93],[71,99],[-26,52]],[[5926,2883],[-47,20],[-24,-26],[19,-65],[-64,-12],[-49,16],[-173,-130],[-92,25],[-64,-10],[-24,22],[-152,10],[17,58],[-105,7],[-80,-23]],[[5088,2775],[-39,73],[-104,22],[-10,88],[19,26],[-42,68],[11,63]],[[4923,3115],[65,38],[-4,47]],[[4984,3200],[55,-6],[52,49],[36,107],[130,35],[180,1],[95,-33],[114,-20],[83,-57],[99,-90],[71,-88],[25,-88],[2,-127]],[[3749,2272],[35,-36],[58,47],[21,110],[66,0],[34,83]],[[3794,3073],[4,-15],[-35,-35],[-14,-72],[-78,-5]],[[3671,2946],[-55,-4],[-27,56],[-85,-16],[-53,19],[-41,-34],[40,-59],[-37,-57],[17,-82]],[[3430,2769],[-78,28]],[[3333,3109],[-63,106]],[[3544,3647],[80,-29],[66,-168],[-1,-42],[-42,-26],[-20,-60],[19,-43],[129,-34],[26,-26],[-16,-56],[-36,4],[-24,-59],[69,-35]],[[3419,3509],[-36,-19],[36,-142],[65,23],[-28,110],[-37,28]],[[5926,2883],[15,-57],[-57,-187],[-26,-41],[-7,-100],[-28,-113],[-49,-20],[-45,-71],[-55,-56],[-66,5],[-112,-12]],[[5072,2359],[-8,60],[16,47],[48,7],[15,69],[-58,31],[51,33],[-51,50],[-31,90],[34,29]],[[4564,1639],[47,-32]],[[4611,1607],[46,-15],[56,-67]],[[4713,1525],[22,-38],[54,58],[26,-10],[25,-42]],[[4831,1322],[-105,3],[-25,28],[-79,-48],[-58,-9],[-94,-39],[-137,6]],[[4489,1691],[32,-14]],[[4521,1677],[43,-38]],[[4675,972],[-139,-28],[-84,-5],[-117,-41],[-25,-44],[-76,58],[-17,80]],[[3303,6710],[-66,-68],[-81,-62],[-47,20],[-69,-2],[-45,-29],[-155,126],[8,17]],[[2848,6712],[102,32],[64,98],[100,-4],[75,-61],[62,-19],[52,-48]],[[2368,6992],[-24,-87],[28,-21],[6,-53],[-104,-5],[-30,-23]],[[2244,6803],[-84,-22],[-94,11],[17,-59],[-81,7],[-52,45],[-33,69],[-41,11]],[[1876,6865],[-62,131],[11,128],[-112,64],[81,99],[55,19]],[[1849,7306],[40,31],[157,40],[22,-72],[90,39],[30,-25],[-34,-49],[-48,-129],[31,-28],[116,-34],[42,-52],[73,-35]],[[2999,7303],[-136,-17]],[[2863,7286],[-23,10],[36,39],[124,-10],[-1,-22]],[[1996,3883],[74,-13],[57,-110],[105,-4],[-39,-63],[-65,-44],[-11,-33],[-87,-58],[-56,23],[-92,142],[16,22],[-7,116],[105,22]],[[2604,3391],[-22,-57],[6,-76]],[[2588,3258],[-65,-43],[-15,-38],[5,-99],[-153,-61],[-1,-59],[-55,-43]],[[2304,2915],[-10,-4]],[[2294,2911],[-78,-18],[-41,79],[49,104],[-63,117],[21,45],[-22,65],[-43,15],[-107,-27],[-47,-29],[-34,-86],[-56,36],[-26,-29],[-79,-2],[75,122],[82,38],[53,65],[53,39],[27,104],[121,125],[73,10]],[[2252,3684],[47,-36],[-61,-122],[34,-42],[-5,-65],[57,-16],[54,-52],[125,69],[21,-49],[80,20]],[[2573,3760],[-3,-81],[29,-23],[3,-63],[-46,-29],[48,-173]],[[2252,3684],[105,55],[45,37],[43,-38],[65,-3],[63,25]],[[2813,3489],[-11,-83],[33,-44],[-128,-17],[-50,-58]],[[2657,3287],[-69,-29]],[[2573,3760],[90,43]],[[2663,3803],[-18,-56],[41,-33],[-3,-41],[40,-89],[57,-4],[33,-91]],[[2919,3556],[-106,-67]],[[2663,3803],[34,-10],[130,-115],[14,17]],[[2802,3285],[-73,-26],[-72,28]],[[2413,2430],[-118,12],[-50,-45],[-25,19],[-55,-23],[-58,-64],[-146,-1],[-61,8]],[[1900,2336],[-77,22],[-5,46]],[[1818,2404],[29,38],[79,-4],[90,91],[34,-3],[75,56],[42,67],[33,85],[31,143],[63,34]],[[2304,2915],[55,-11],[-1,-43],[46,-78],[38,-32],[10,-54],[-20,-67],[-19,-200]],[[1900,2336],[46,-62],[-94,-79],[-50,-3],[13,-63],[31,-32],[8,-107]],[[1854,1990],[-28,-9],[-25,-77],[-42,-26],[-51,13],[-56,-56],[-72,27],[-16,95],[-81,19],[5,37],[61,20],[-19,101],[-107,12],[0,38],[69,47],[72,20],[9,69],[64,-36],[84,30],[1,29],[96,61]],[[2413,2430],[70,-101],[-40,-86],[-2,-83],[-38,-46],[-21,-65]],[[2382,2049],[-38,25],[-46,-44]],[[2298,2030],[-72,-47],[4,-26],[-6,-6]],[[2224,1951],[-19,-18],[-132,-9],[-38,21],[-18,66],[-55,-25],[-108,4]],[[2298,2030],[61,-82],[-28,-90]],[[2331,1858],[-47,-6],[-68,-62],[-30,15],[-63,-37],[-44,28],[-20,53],[41,43],[73,-17],[51,76]],[[2382,2049],[23,-37],[64,36],[51,-36]],[[2520,2012],[1,-85],[16,-37],[-65,-5],[-18,-53],[24,-33],[-31,-41],[-37,7]],[[2410,1765],[-57,90],[-22,3]],[[2926,2679],[-30,-31],[-3,-65],[-83,-141],[6,-67],[37,-107]],[[2853,2268],[-16,-21],[33,-91],[-74,-75],[-98,-25],[-15,-5],[-70,30],[-93,-69]],[[1557,7365],[65,15],[31,37],[43,-11],[98,25],[63,31]],[[1857,7462],[18,-44],[-56,-96],[30,-16]],[[1876,6865],[-9,-153]],[[1867,6712],[-112,77],[-71,-35],[-53,-137],[-42,10],[-85,70],[-85,-86],[-26,47],[10,111],[-73,-29],[20,-84],[67,-127],[-87,-85],[-21,-74],[-16,-173],[-27,-78],[21,-63],[-54,-60],[-125,-6],[2,98],[47,41],[4,164],[81,218],[-48,35],[-8,148],[-24,21],[52,116],[83,149],[-59,72],[12,93],[59,116],[85,26],[66,-24],[46,19],[51,83]],[[0,7833],[21,64],[77,-15],[-36,-46],[-62,-3]],[[132,8347],[51,-56],[12,-82],[-27,-65],[23,-135],[-90,0],[-25,51],[-13,98],[24,73],[-11,95],[56,21]],[[125,8431],[50,-2],[33,-70],[-66,-12],[-52,21],[-12,52],[47,11]],[[178,8533],[-46,-40],[-124,78],[28,64],[127,2],[101,-109],[-86,5]],[[503,8961],[51,-79],[-87,17],[29,-61],[-81,-53],[-38,-62],[-42,15],[-49,60],[57,43],[34,118],[-88,18],[12,83],[-47,91],[54,124],[36,0],[65,-50],[101,12],[-58,92],[111,81],[68,13],[69,78],[87,52],[76,-16],[9,-40],[-33,-70],[16,-33],[-78,-77],[20,-70],[52,45],[32,-30],[-62,-46],[-62,11],[-12,-40],[-55,-51],[55,-50],[-14,-73],[-40,-12],[-12,-57],[-45,-23],[-70,0],[-61,40]],[[2731,9897],[-24,-10],[-89,106],[21,56],[49,5],[72,-55],[6,-82],[-35,-20]],[[2770,10308],[124,-92],[-2,-69],[55,-50],[42,22],[88,-54],[-114,-132],[-56,161],[-137,-55],[-20,59],[-81,-2],[-6,57],[32,134],[75,21]],[[2851,10505],[81,21],[-22,-90],[-59,69]],[[3834,11458],[-11,46],[-89,16],[13,77],[64,-10],[147,72],[-72,64],[-3,83],[-99,-19],[1,40],[58,25],[108,89],[22,-79],[-33,-16],[40,-65],[49,31],[97,-120],[-26,-96],[-44,-79],[26,-49],[-56,-175],[7,-42],[-32,-84],[-59,0],[2,55],[57,146],[-49,114],[-77,-46],[-41,22]],[[4174,12065],[11,-92],[-40,-43],[6,-111],[-84,-3],[-22,121],[49,97],[-1,38],[81,-7]],[[4254,12205],[61,-73],[-57,-88],[-74,20],[19,80],[51,61]],[[1579,6613],[24,-16],[15,-82],[-77,2],[-5,82],[-59,62],[25,27],[77,-75]],[[901,6692],[-6,-43],[30,-120],[25,-22],[10,-90],[-77,-66],[-28,8],[-47,-59],[-41,45],[45,59],[-45,79],[-99,-81],[-7,74],[26,52],[2,78],[96,16],[68,67],[48,3]],[[894,6908],[-33,-89],[-39,46],[72,43]],[[1165,6939],[15,-43],[-101,-191],[-59,-82],[-17,-84],[-46,4],[-34,40],[0,77],[60,84],[29,70],[153,125]],[[516,7378],[-50,-20],[-82,-89],[-34,68],[107,44],[59,-3]],[[1556,7373],[-85,-101],[-112,43],[-2,85],[54,67]],[[1411,7467],[71,13],[85,-25],[-11,-82]],[[908,7493],[29,-6],[49,-65],[25,-69],[98,-4],[87,-75],[6,-36],[-59,-83],[-58,-34],[-97,13],[-37,-34],[-128,-5],[-47,-22],[-38,45],[17,43],[103,-17],[-11,59],[35,32],[19,67],[-66,63],[-40,-7],[-22,94],[61,30],[74,11]],[[689,7542],[-33,-79],[-67,-47],[0,70],[74,59],[26,-3]],[[4725,1850],[-21,-43],[19,-3],[24,-5]],[[4759,1749],[-13,-1],[-4,-4],[-51,23]],[[4691,1767],[-13,21],[-34,50],[-25,42]],[[4806,1891],[-19,-46]],[[4787,1845],[-62,5]],[[4652,1729],[6,-16],[15,-19],[27,7]],[[4700,1701],[18,8],[13,1]],[[4731,1710],[-7,-75],[8,-8]],[[4732,1627],[-4,-24]],[[4728,1603],[-67,-1],[-8,48],[-2,5],[-40,-48]],[[4521,1677],[33,49],[98,3]],[[4762,1734],[-19,4],[-1,0],[-11,-28]],[[4700,1701],[-32,59],[8,-2],[15,9]],[[4763,1751],[-1,-17]],[[4817,1735],[-50,-3]],[[4767,1732],[-5,2]],[[4803,1775],[14,-40]],[[4916,1740],[-40,4]],[[4876,1744],[-19,32],[51,61]],[[4908,1837],[26,-51],[-18,-46]],[[4949,1715],[-33,25]],[[4908,1837],[-6,28]],[[4713,1525],[15,78]],[[4732,1627],[31,8],[1,1],[3,6]],[[4767,1642],[66,19],[29,-11],[27,89]],[[4889,1739],[67,-37]],[[4787,1845],[-12,-31]],[[4767,1732],[26,-13]],[[4793,1719],[-26,-77]],[[4876,1744],[-59,-9]],[[4793,1719],[6,-11],[2,-7],[0,-1],[14,31],[57,5],[2,1],[15,2]],[[3651,3993],[12,-46],[39,-67],[55,-32],[36,-91],[40,-7],[79,42],[56,-15],[79,-20],[38,35],[16,73],[76,33],[39,73]],[[4305,3918],[4,-77],[27,-92],[-19,-65],[30,-40],[23,-162],[-64,-63],[10,-37]],[[4316,3382],[-50,-80],[-81,-94],[-85,-2],[-52,-34],[-41,24],[-3,71],[-50,-7],[-78,-113],[-54,-3],[-28,-71]],[[3515,3823],[3,66],[41,91],[34,32]],[[3593,4012],[58,-19]],[[4824,4000],[72,-33],[67,-107],[58,-159],[20,-78],[-3,-89],[-127,-118],[-51,-84],[3,-38],[63,-27],[58,-67]],[[4923,3115],[-81,-28],[3,-37],[-52,-23],[-146,-10],[-48,26],[-100,-38]],[[4498,3005],[41,73],[-40,6],[-75,55],[-34,-4],[-12,63],[-61,103],[-1,81]],[[3140,2630],[-6,-74],[85,19],[65,-54],[-18,-40],[46,-32],[0,-139]],[[3120,2091],[-56,12],[-20,50],[-68,60],[-62,-33],[-61,88]],[[3430,2769],[94,3],[12,-58],[83,27],[-2,-43],[115,-18],[59,43],[88,-18],[25,67],[-22,25],[-87,1],[-52,-23],[-49,87],[-23,84]],[[2571,624],[-3,-70],[-29,-35],[33,-49],[-6,-38],[-61,-31],[-29,-89],[-40,-41],[-62,16],[-25,49],[-62,55],[-57,-16],[-51,58]],[[2151,523],[-22,11]],[[1909,1087],[13,104],[86,-31],[56,3],[54,74],[5,142],[78,31],[235,17]],[[2926,964],[4,-115]],[[2930,849],[-95,-36],[-103,-14],[-67,-75],[-52,-5],[-42,-95]],[[2904,1508],[16,86],[32,16],[73,100],[47,19],[26,-25],[7,72],[84,154]],[[4027,4104],[-17,-32],[-58,-9],[-62,31],[-54,-20],[-36,14],[-18,-49],[-131,-46]],[[3593,4012],[-64,87],[-11,9],[-15,66],[-61,-2]],[[3168,3909],[-98,83]],[[2500,1699],[-4,-1],[-8,-6],[-52,11],[-26,62]],[[3112,1879],[-31,-60],[-70,-32],[-55,-25],[-57,5],[-56,-38],[-52,-66],[-3,-42],[-111,-28],[-137,22],[-40,84]],[[2099,6411],[-97,40],[-38,42],[-45,-8],[-13,25],[-70,-7],[-58,100],[-88,28]],[[1690,6631],[6,77],[39,22],[129,-36],[26,4],[-23,14]],[[2244,6803],[76,-101],[52,-46],[45,-43],[5,-85],[97,31],[77,-44],[47,-68],[-84,-112],[27,-105],[-34,-83],[20,-34],[-45,-31],[3,-63],[-56,-41],[-31,80],[-74,90],[-103,23]],[[2266,6171],[-25,31],[43,55],[-51,57],[-28,-28],[-77,18],[-29,107]],[[2425,6858],[-36,31],[79,-99],[103,-17],[53,-8],[79,-21],[77,18],[68,-50]],[[3303,6710],[89,-13],[94,-68],[27,-69]],[[3513,6560],[-32,-55],[-104,-124],[-55,-22],[59,-87],[35,-104],[-101,-70],[-22,-56],[-61,7],[-96,-105],[-41,-81]],[[2863,5640],[-61,-31],[-116,17],[-94,-13],[-69,9],[-6,-115],[-85,9],[-66,-66],[-99,-59],[-112,14],[-12,31],[-159,84],[9,-62],[38,-17],[-25,-152],[-113,68],[-19,44],[-139,100],[-75,-38],[-48,-56],[-82,76],[-31,72],[5,80],[50,36],[39,-23]],[[1593,5648],[71,60],[137,-16],[57,35],[-21,59],[60,41],[65,15],[54,34],[12,64],[37,59],[63,8],[40,-37],[35,74],[-4,69],[67,58]],[[2368,6992],[150,-26],[-23,-45],[164,35],[71,35],[-68,49],[-10,32],[69,93]],[[2721,7165],[32,5],[193,108],[74,-11],[-8,-83],[28,-40],[74,-15],[48,-45],[-69,-65],[-76,-41],[-84,32],[-132,-108],[-16,-60],[-77,-11],[-91,-32],[-88,39],[-71,-13],[-33,33]],[[3055,3761],[47,45]],[[3094,3813],[-87,-33],[-95,52],[-21,67],[-61,130],[29,75],[71,76]],[[2827,3742],[-61,96],[104,67],[25,-77],[47,-74]],[[3953,5494],[29,-103],[39,-51]],[[4021,5340],[-19,4],[-70,-92],[-38,-55],[-76,-3],[-79,28],[-9,-91]],[[3513,6560],[61,-102],[192,-159],[30,-97],[8,-95],[-18,-27],[38,-69],[-13,-56],[45,-96],[-17,-29],[41,-96],[26,-63],[-34,-36],[30,22],[40,-70],[11,-93]],[[4021,5340],[41,-28],[-10,-76],[3,-45],[21,42],[232,-78]],[[3265,7616],[-36,-148],[-37,-61],[-113,-79],[-11,-34],[-69,9]],[[2863,7286],[-142,-121]],[[1857,7462],[-56,30],[78,57],[46,125],[50,-35],[44,66],[93,28],[37,53],[129,-6],[20,41],[87,1],[58,-27],[80,21],[76,-66],[60,2],[89,49],[72,-34],[23,80],[122,32],[82,-30],[66,-85],[-5,-48],[34,-66],[55,2],[68,-36]],[[4653,4230],[-106,-16],[-80,-12],[-56,28],[-44,-48]],[[4261,4123],[-52,24],[-66,-3]],[[4678,4706],[73,-32],[-73,-81],[0,-54],[36,-120],[75,-127],[98,-142],[-108,-37],[-31,8],[-95,109]],[[1593,5648],[-8,60],[39,103],[85,94],[9,109],[45,40],[4,45],[73,46],[22,64],[-25,78],[-60,69],[-26,1],[-70,104],[30,27],[-21,143]],[[1448,6460],[68,-49],[50,-141],[-1,-110],[-73,-24],[-74,36],[-27,46],[12,49],[-37,68],[19,75],[63,50]],[[3733,871],[-44,-22],[-68,-2],[-44,-19],[-67,22],[-1,-2],[31,-56],[33,6],[-7,-87],[-101,4],[-200,43],[-30,-59],[-106,90],[-100,60],[-77,18],[-22,-18]],[[1557,7365],[-1,8]],[[1411,7467],[45,57],[-68,13],[-81,-81],[-41,-66],[-84,-60],[-57,39],[-84,21],[-63,76],[36,77],[-126,-6],[-48,23],[21,58],[80,2],[125,60],[82,96],[-116,-15],[60,142],[62,11],[-45,54],[92,67],[-25,48],[39,35],[-7,47],[32,31],[-87,30],[28,50],[-67,5],[-9,104],[-44,39],[24,118],[80,-24],[38,-52],[39,52],[-73,7],[-61,86],[-9,241],[83,10],[10,-72],[56,40],[-48,59],[60,32],[13,-53],[55,-20],[20,64],[117,9],[30,45],[-73,35],[-86,82],[102,14],[2,45],[-52,116],[160,59],[-41,84],[37,93],[38,40],[-44,29],[116,133],[44,7],[51,-43],[34,9],[57,-58],[41,51],[207,-58],[117,34],[196,13],[76,60],[77,1],[108,-31],[90,61],[128,-7],[-28,-88],[-36,-42],[49,-58],[-37,-117],[-72,-73],[-103,-39],[-83,-111],[-149,-117],[-38,-12],[-27,-56],[-88,-42],[-18,-122],[98,-40],[-75,-146],[-62,42],[-61,-53],[2,-31],[109,22],[-116,-124],[-38,-74],[37,-17],[88,84],[18,46],[98,-9],[61,42],[47,31],[104,7],[43,44],[75,24],[201,-69],[95,46],[50,-10],[39,-16],[219,-14],[63,31],[68,-28],[47,33],[126,-29],[62,-67],[0,-54],[32,-107],[-55,-93],[-83,-93],[-46,-105],[-15,-141],[-79,-132],[8,-67],[-83,-127],[-62,-48]],[[768,7961],[46,-27],[1,-77],[-35,-37],[-95,81],[83,60]],[[994,8447],[-35,-73],[25,-79],[-62,-9],[21,122],[51,39]],[[754,8687],[103,-84],[34,-98],[-6,-196],[28,-58],[140,-91],[84,40],[55,-10],[0,-63],[-72,-47],[-102,-144],[-61,16],[27,130],[-70,1],[-42,33],[-98,-43],[-84,115],[12,70],[-31,77],[-58,-7],[7,-56],[-100,37],[-39,96],[41,63],[162,-15],[62,17],[-18,110],[26,107]],[[4147,976],[7,-49],[-36,-11],[-15,23],[23,44],[21,-7]]],"transform":{"scale":[0.0015647967673101124,0.0008918804329740527],"translate":[-7.532751984925859,49.9605088687089]},"objects":{"LEVI-EVIF-ULEVTF-authorities":{"type":"GeometryCollection","geometries":[{"arcs":[[0,1,2,3,4,5,6]],"type":"Polygon","properties":{"CTYUA24CD":"E06000007","CTYUA24NM":"Warrington","CTYUA24NMW":" ","BNG_E":362744,"BNG_N":388457,"LONG":-2.56168,"LAT":53.39164,"GlobalID":"b1ffc190-c2a9-4bec-83ff-c5658a00d88b","local-authority code":null},"id":7},{"arcs":[[7,8]],"type":"Polygon","properties":{"CTYUA24CD":"E06000008","CTYUA24NM":"Blackburn with Darwen","CTYUA24NMW":" ","BNG_E":369489,"BNG_N":422806,"LONG":-2.46362,"LAT":53.70081,"GlobalID":"f1835886-d615-4728-b5e6-838582af03b5","local-authority code":null},"id":8},{"arcs":[[9,10]],"type":"Polygon","properties":{"CTYUA24CD":"E06000009","CTYUA24NM":"Blackpool","CTYUA24NMW":" ","BNG_E":332817,"BNG_N":436635,"LONG":-3.02203,"LAT":53.82164,"GlobalID":"8f375c5c-eed6-4788-ac36-4585b3c5b842","local-authority code":null},"id":9},{"arcs":[[11,12,13]],"type":"Polygon","properties":{"CTYUA24CD":"E06000012","CTYUA24NM":"North East Lincolnshire","CTYUA24NMW":" ","BNG_E":523465,"BNG_N":404564,"LONG":-0.13911,"LAT":53.52327,"GlobalID":"1263c679-678c-4d4e-a1af-70195cda04d7","local-authority code":null},"id":12},{"arcs":[[-13,14,15,16,17,18]],"type":"Polygon","properties":{"CTYUA24CD":"E06000013","CTYUA24NM":"North Lincolnshire","CTYUA24NMW":" ","BNG_E":497800,"BNG_N":410993,"LONG":-0.52408,"LAT":53.58643,"GlobalID":"ba9c939f-07b9-44aa-bab3-eefdc19b703f","local-authority code":null},"id":13},{"arcs":[[19,20]],"type":"Polygon","properties":{"CTYUA24CD":"E06000014","CTYUA24NM":"York","CTYUA24NMW":" ","BNG_E":460863,"BNG_N":452590,"LONG":-1.07377,"LAT":53.96583,"GlobalID":"cfac2f2d-aa48-4c59-b28a-5f5885418d33","local-authority code":null},"id":14},{"arcs":[[21]],"type":"Polygon","properties":{"CTYUA24CD":"E06000016","CTYUA24NM":"Leicester","CTYUA24NMW":" ","BNG_E":458946,"BNG_N":304594,"LONG":-1.13041,"LAT":52.63592,"GlobalID":"ed1d39a6-0304-4d8a-af5d-312ae4355874","local-authority code":null},"id":16},{"arcs":[[22,23]],"type":"Polygon","properties":{"CTYUA24CD":"E06000026","CTYUA24NM":"Plymouth","CTYUA24NMW":" ","BNG_E":249945,"BNG_N":58255,"LONG":-4.11298,"LAT":50.40495,"GlobalID":"1edf2079-6363-418e-b7b2-2614f1856354","local-authority code":null},"id":26},{"arcs":[[24,25,26]],"type":"Polygon","properties":{"CTYUA24CD":"E06000030","CTYUA24NM":"Swindon","CTYUA24NMW":" ","BNG_E":418550,"BNG_N":186565,"LONG":-1.73369,"LAT":51.57765,"GlobalID":"84a29244-a0d2-4efd-9789-2626adad7bcc","local-authority code":null},"id":28},{"arcs":[[27,28]],"type":"Polygon","properties":{"CTYUA24CD":"E06000032","CTYUA24NM":"Luton","CTYUA24NMW":" ","BNG_E":508606,"BNG_N":222559,"LONG":-0.4232,"LAT":51.89102,"GlobalID":"2ad933d9-6712-4f7d-85db-9d2d2a4f3670","local-authority code":null},"id":30},{"arcs":[[29,30]],"type":"Polygon","properties":{"CTYUA24CD":"E06000033","CTYUA24NM":"Southend-on-Sea","CTYUA24NMW":" ","BNG_E":587777,"BNG_N":186837,"LONG":0.706923,"LAT":51.54918,"GlobalID":"b61d4422-9cec-451c-a770-f50c81234927","local-authority code":null},"id":31},{"arcs":[[31,32,33]],"type":"Polygon","properties":{"CTYUA24CD":"E06000034","CTYUA24NM":"Thurrock","CTYUA24NMW":" ","BNG_E":562124,"BNG_N":181588,"LONG":0.334874,"LAT":51.50996,"GlobalID":"45d2a46d-2e6c-41ff-8558-2f97064812f9","local-authority code":null},"id":32},{"arcs":[[34,35]],"type":"Polygon","properties":{"CTYUA24CD":"E06000035","CTYUA24NM":"Medway","CTYUA24NMW":" ","BNG_E":578207,"BNG_N":175198,"LONG":0.563174,"LAT":51.44773,"GlobalID":"8a73159a-5bbb-4bd9-a541-28a0e09a851a","local-authority code":null},"id":33},{"arcs":[[36,37,38,39]],"type":"Polygon","properties":{"CTYUA24CD":"E06000036","CTYUA24NM":"Bracknell Forest","CTYUA24NMW":" ","BNG_E":488168,"BNG_N":168791,"LONG":-0.73365,"LAT":51.4113,"GlobalID":"9b9a8c40-5193-463f-ad48-0db771594720","local-authority code":null},"id":34},{"arcs":[[40,41,42,43,44]],"type":"Polygon","properties":{"CTYUA24CD":"E06000037","CTYUA24NM":"West Berkshire","CTYUA24NMW":" ","BNG_E":450573,"BNG_N":172095,"LONG":-1.27367,"LAT":51.44559,"GlobalID":"f1cd3cfa-8343-4829-96fc-c04ec1147512","local-authority code":null},"id":35},{"arcs":[[45,-41,46]],"type":"Polygon","properties":{"CTYUA24CD":"E06000038","CTYUA24NM":"Reading","CTYUA24NMW":" ","BNG_E":470223,"BNG_N":173153,"LONG":-0.99075,"LAT":51.45302,"GlobalID":"a5192c01-d485-415b-8059-4d7e66e536f8","local-authority code":null},"id":36},{"arcs":[[47,48,49,50]],"type":"Polygon","properties":{"CTYUA24CD":"E06000039","CTYUA24NM":"Slough","CTYUA24NMW":" ","BNG_E":498920,"BNG_N":179246,"LONG":-0.57618,"LAT":51.5035,"GlobalID":"8a29bcd7-c7ab-4021-908f-7d99053b5c34","local-authority code":null},"id":37},{"arcs":[[-50,51,-40,52,53]],"type":"Polygon","properties":{"CTYUA24CD":"E06000040","CTYUA24NM":"Windsor and Maidenhead","CTYUA24NMW":" ","BNG_E":492079,"BNG_N":176541,"LONG":-0.67541,"LAT":51.48034,"GlobalID":"932df08d-5b04-48e9-a38d-e7e6d05f55db","local-authority code":null},"id":38},{"arcs":[[-53,-39,54,-42,-46,55,56]],"type":"Polygon","properties":{"CTYUA24CD":"E06000041","CTYUA24NM":"Wokingham","CTYUA24NMW":" ","BNG_E":476624,"BNG_N":169903,"LONG":-0.89936,"LAT":51.42297,"GlobalID":"181d233a-d0ce-4cd2-ac86-10f7b2b0ec9e","local-authority code":null},"id":39},{"arcs":[[57,58,59,60,61]],"type":"Polygon","properties":{"CTYUA24CD":"E06000042","CTYUA24NM":"Milton Keynes","CTYUA24NMW":" ","BNG_E":486408,"BNG_N":242308,"LONG":-0.74071,"LAT":52.07242,"GlobalID":"8c37c008-29f2-4713-95ac-03af92ffa822","local-authority code":null},"id":40},{"arcs":[[62,63,64]],"type":"Polygon","properties":{"CTYUA24CD":"E06000043","CTYUA24NM":"Brighton and Hove","CTYUA24NMW":" ","BNG_E":530278,"BNG_N":106850,"LONG":-0.15081,"LAT":50.84651,"GlobalID":"2e06445e-4baf-4e82-9a0e-431887f740aa","local-authority code":null},"id":41},{"type":null,"properties":{"CTYUA24CD":"E06000044","CTYUA24NM":"Portsmouth","CTYUA24NMW":" ","BNG_E":465619,"BNG_N":101352,"LONG":-1.07006,"LAT":50.808,"GlobalID":"472b7812-b931-4afd-b223-23fb1d646d72","local-authority code":null},"id":42},{"arcs":[[65,66]],"type":"Polygon","properties":{"CTYUA24CD":"E06000045","CTYUA24NM":"Southampton","CTYUA24NMW":" ","BNG_E":442303,"BNG_N":113700,"LONG":-1.39953,"LAT":50.92121,"GlobalID":"c7399c7f-e3ae-41c9-bb65-707f303a288e","local-authority code":null},"id":43},{"arcs":[[67]],"type":"Polygon","properties":{"CTYUA24CD":"E06000046","CTYUA24NM":"Isle of Wight","CTYUA24NMW":" ","BNG_E":447183,"BNG_N":85949,"LONG":-1.33366,"LAT":50.67129,"GlobalID":"4ae7fad1-7f89-412d-b773-40937ed7c11a","local-authority code":null},"id":44},{"arcs":[[68,69,70,71,72,-2,73]],"type":"Polygon","properties":{"CTYUA24CD":"E06000049","CTYUA24NM":"Cheshire East","CTYUA24NMW":" ","BNG_E":380510,"BNG_N":363462,"LONG":-2.293,"LAT":53.16793,"GlobalID":"6df44925-0b2f-4b37-a844-08aec9a77ea9","local-authority code":null},"id":46},{"arcs":[[74,75,76,77,78,79,80,-3,-73]],"type":"Polygon","properties":{"CTYUA24CD":"E06000050","CTYUA24NM":"Cheshire West and Chester","CTYUA24NMW":" ","BNG_E":353097,"BNG_N":363145,"LONG":-2.70298,"LAT":53.16336,"GlobalID":"f071ecea-80d9-4585-94b3-1159462de7f7","local-authority code":null},"id":47},{"arcs":[[81,82,83,84,85,86,-75,-72,87]],"type":"Polygon","properties":{"CTYUA24CD":"E06000051","CTYUA24NM":"Shropshire","CTYUA24NMW":" ","BNG_E":350227,"BNG_N":302957,"LONG":-2.73667,"LAT":52.6221,"GlobalID":"67a6e52a-9b97-4a58-bb86-8060b5bb7db2","local-authority code":null},"id":48},{"arcs":[[88,89]],"type":"Polygon","properties":{"CTYUA24CD":"","CTYUA24NM":"Cornwall and Scilly","CTYUA24NMW":" ","BNG_E":212497,"BNG_N":64493,"LONG":-4.64255,"LAT":50.45023,"GlobalID":"85fa5e5a-df2d-4d14-b4ac-7940d2c520a1","local-authority code":"CNS"},"id":49},{"type":null,"properties":{"CTYUA24CD":"E06000053","CTYUA24NM":"Isles of Scilly","CTYUA24NMW":" ","BNG_E":91327,"BNG_N":11447,"LONG":-6.30217,"LAT":49.92333,"GlobalID":"772145c4-a243-4a7f-acd1-8869e603b6ef","local-authority code":null},"id":50},{"arcs":[[-26,90,-44,91,92,93,94,95]],"type":"Polygon","properties":{"CTYUA24CD":"E06000054","CTYUA24NM":"Wiltshire","CTYUA24NMW":" ","BNG_E":405213,"BNG_N":158862,"LONG":-1.92656,"LAT":51.32883,"GlobalID":"22a014eb-1c7b-4d5f-a68b-343dd30a3e2b","local-authority code":null},"id":51},{"arcs":[[96,-62,97,98]],"type":"Polygon","properties":{"CTYUA24CD":"E06000055","CTYUA24NM":"Bedford","CTYUA24NMW":" ","BNG_E":505721,"BNG_N":256463,"LONG":-0.45464,"LAT":52.19629,"GlobalID":"4ee5a219-babe-42a8-8f1f-8ef5c954d105","local-authority code":null},"id":52},{"arcs":[[99,100,-29,101,102,-58,-97]],"type":"Polygon","properties":{"CTYUA24CD":"E06000056","CTYUA24NM":"Central Bedfordshire","CTYUA24NMW":" ","BNG_E":504615,"BNG_N":234492,"LONG":-0.47754,"LAT":51.99904,"GlobalID":"eb404cf4-6054-4ce8-9b43-b8d489c03f29","local-authority code":null},"id":53},{"arcs":[[-59,-103,103,104,-51,-54,-57,105,106]],"type":"Polygon","properties":{"CTYUA24CD":"E06000060","CTYUA24NM":"Buckinghamshire","CTYUA24NMW":" ","BNG_E":482503,"BNG_N":208562,"LONG":-0.80574,"LAT":51.76967,"GlobalID":"a356b3b8-4922-4d52-bc17-2deb6638799b","local-authority code":null},"id":57},{"arcs":[[107,108,-98,-61,109,110]],"type":"Polygon","properties":{"CTYUA24CD":"E06000061","CTYUA24NM":"North Northamptonshire","CTYUA24NMW":" ","BNG_E":493590,"BNG_N":281719,"LONG":-0.62505,"LAT":52.42547,"GlobalID":"dcdc9f40-6708-4edc-8e26-944c496d4ce9","local-authority code":null},"id":58},{"arcs":[[-110,-60,-107,111,112]],"type":"Polygon","properties":{"CTYUA24CD":"E06000062","CTYUA24NM":"West Northamptonshire","CTYUA24NMW":" ","BNG_E":467187,"BNG_N":263879,"LONG":-1.01683,"LAT":52.26899,"GlobalID":"41c15cd5-a1f3-49ee-a502-37a8f1bcab79","local-authority code":null},"id":59},{"arcs":[[113,114,115,116]],"type":"Polygon","properties":{"CTYUA24CD":"E06000063","CTYUA24NM":"Cumberland","CTYUA24NMW":" ","BNG_E":315764,"BNG_N":533086,"LONG":-3.30816,"LAT":54.68576,"GlobalID":"9175c915-dfa3-49b5-9072-b20b362c5e37","local-authority code":null},"id":60},{"arcs":[[117,118,119,120,-114,121]],"type":"Polygon","properties":{"CTYUA24CD":"E06000064","CTYUA24NM":"Westmorland and Furness","CTYUA24NMW":" ","BNG_E":353889,"BNG_N":510941,"LONG":-2.71337,"LAT":54.4917,"GlobalID":"a99403ef-df40-4732-bcb5-3f8d789bed34","local-authority code":null},"id":61},{"arcs":[[122,-21,123,124,125,126,-119,127,128,129]],"type":"Polygon","properties":{"CTYUA24CD":"E06000065","CTYUA24NM":"North Yorkshire","CTYUA24NMW":" ","BNG_E":429508,"BNG_N":466514,"LONG":-1.55034,"LAT":54.0937,"GlobalID":"290c0d6a-2511-49d5-94c7-73c93f0284ea","local-authority code":null},"id":62},{"arcs":[[130,-94,131,132,133]],"type":"Polygon","properties":{"CTYUA24CD":"E06000066","CTYUA24NM":"Somerset","CTYUA24NMW":" ","BNG_E":309294,"BNG_N":131078,"LONG":-3.29604,"LAT":51.07183,"GlobalID":"090b6ea2-2de5-4b95-8511-f099d98a2ed7","local-authority code":null},"id":63},{"arcs":[[134,135,136,137,138,139]],"type":"Polygon","properties":{"CTYUA24CD":"E09000012","CTYUA24NM":"Hackney","CTYUA24NMW":" ","BNG_E":534560,"BNG_N":185787,"LONG":-0.06046,"LAT":51.55493,"GlobalID":"aa61a277-a7b8-4cb8-aa17-2237bc0edc95","local-authority code":null},"id":111},{"arcs":[[140,-63,141,142,143]],"type":"Polygon","properties":{"CTYUA24CD":"E10000011","CTYUA24NM":"East Sussex","CTYUA24NMW":" ","BNG_E":564122,"BNG_N":117996,"LONG":0.334545,"LAT":50.93805,"GlobalID":"73c9ffb1-07fb-40ae-97f8-fe4ba911d9d4","local-authority code":null},"id":136},{"arcs":[[144,-31,145,-34,146,147,148,149,150,151]],"type":"Polygon","properties":{"CTYUA24CD":"E10000012","CTYUA24NM":"Essex","CTYUA24NMW":" ","BNG_E":575269,"BNG_N":215409,"LONG":0.541047,"LAT":51.80985,"GlobalID":"522c82f4-5237-4f66-8185-fa9214775b5d","local-authority code":null},"id":137},{"arcs":[[152,153,-27,-96,154,155,156,157,158]],"type":"Polygon","properties":{"CTYUA24CD":"E10000013","CTYUA24NM":"Gloucestershire","CTYUA24NMW":" ","BNG_E":389595,"BNG_N":213466,"LONG":-2.15235,"LAT":51.81973,"GlobalID":"4a0d70b0-e012-4afc-b96c-1a570dae1f06","local-authority code":null},"id":138},{"arcs":[[-55,-38,159,160,161,-67,162,163,-92,-43]],"type":"Polygon","properties":{"CTYUA24CD":"E10000014","CTYUA24NM":"Hampshire","CTYUA24NMW":" ","BNG_E":452857,"BNG_N":127536,"LONG":-1.24738,"LAT":51.04475,"GlobalID":"b2c69a56-e748-4960-8614-bfdcbb2402b6","local-authority code":null},"id":139},{"arcs":[[-150,164,165,-104,-102,-28,-101,166]],"type":"Polygon","properties":{"CTYUA24CD":"E10000015","CTYUA24NM":"Hertfordshire","CTYUA24NMW":" ","BNG_E":518880,"BNG_N":213639,"LONG":-0.27704,"LAT":51.80876,"GlobalID":"bbbf00d8-5e15-41d3-9a51-ae8f01f32122","local-authority code":null},"id":140},{"arcs":[[[167,-35,168,-144,169,170]],[[171]]],"type":"MultiPolygon","properties":{"CTYUA24CD":"E10000016","CTYUA24NM":"Kent","CTYUA24NMW":" ","BNG_E":590249,"BNG_N":147268,"LONG":0.72137,"LAT":51.19296,"GlobalID":"983d9cf7-3e1a-43ae-9ece-99860d76ae60","local-authority code":null},"id":141},{"arcs":[[-127,172,173,-9,174,175,176,-11,177,-120]],"type":"Polygon","properties":{"CTYUA24CD":"E10000017","CTYUA24NM":"Lancashire","CTYUA24NMW":" ","BNG_E":369784,"BNG_N":440758,"LONG":-2.46092,"LAT":53.86217,"GlobalID":"8866305f-368b-4c8e-ad5f-3c30758c56f8","local-authority code":null},"id":142},{"arcs":[[178,179,180,181]],"type":"Polygon","properties":{"CTYUA24CD":"E10000020","CTYUA24NM":"Norfolk","CTYUA24NMW":" ","BNG_E":600549,"BNG_N":312292,"LONG":0.964714,"LAT":52.67124,"GlobalID":"3e81cd18-07ce-480a-949a-4f6e1314561e","local-authority code":null},"id":145},{"arcs":[[-112,-106,-56,-47,-45,-91,-25,-154,182]],"type":"Polygon","properties":{"CTYUA24CD":"E10000025","CTYUA24NM":"Oxfordshire","CTYUA24NMW":" ","BNG_E":448985,"BNG_N":208339,"LONG":-1.29147,"LAT":51.77159,"GlobalID":"985ce697-4430-446c-9265-00f222de975c","local-authority code":null},"id":147},{"arcs":[[183,184,185,-83,186,-88,-71,187],[188]],"type":"Polygon","properties":{"CTYUA24CD":"E10000028","CTYUA24NM":"Staffordshire","CTYUA24NMW":" ","BNG_E":398242,"BNG_N":334649,"LONG":-2.02758,"LAT":52.90928,"GlobalID":"0e99bab0-6e6c-4101-bc44-649c3001fabd","local-authority code":null},"id":148},{"arcs":[[189,-152,190,-179]],"type":"Polygon","properties":{"CTYUA24CD":"E10000029","CTYUA24NM":"Suffolk","CTYUA24NMW":" ","BNG_E":608221,"BNG_N":266122,"LONG":1.049221,"LAT":52.25387,"GlobalID":"2908abb2-4783-4d39-a431-879de9062d83","local-authority code":null},"id":149},{"arcs":[[191,192,193,-170,-143,194,-160,-37,-52,-49,195,196]],"type":"Polygon","properties":{"CTYUA24CD":"E10000030","CTYUA24NM":"Surrey","CTYUA24NMW":" ","BNG_E":515966,"BNG_N":153408,"LONG":-0.33911,"LAT":51.26803,"GlobalID":"07aebb2e-5ba9-4e70-b276-899cc1021a8d","local-authority code":null},"id":150},{"arcs":[[-142,-65,197,-161,-195]],"type":"Polygon","properties":{"CTYUA24CD":"E10000032","CTYUA24NM":"West Sussex","CTYUA24NMW":" ","BNG_E":508315,"BNG_N":118008,"LONG":-0.45935,"LAT":50.95133,"GlobalID":"4e04814a-6ed4-4a89-87a5-2ecbfe64053b","local-authority code":null},"id":152},{"arcs":[[198,199]],"type":"Polygon","properties":{"CTYUA24CD":"S12000010","CTYUA24NM":"East Lothian","CTYUA24NMW":" ","BNG_E":354854,"BNG_N":672351,"LONG":-2.72435,"LAT":55.94207,"GlobalID":"8b4ec43f-cea6-4ef5-aaee-41c78d91c5bc","local-authority code":null},"id":168},{"arcs":[[200,201,202,203]],"type":"Polygon","properties":{"CTYUA24CD":"S12000030","CTYUA24NM":"Stirling","CTYUA24NMW":" ","BNG_E":255980,"BNG_N":708769,"LONG":-4.32596,"LAT":56.24953,"GlobalID":"e9309603-7669-45c7-a8e6-e98218f46dda","local-authority code":null},"id":182},{"arcs":[[204,205]],"type":"Polygon","properties":{"CTYUA24CD":"S12000042","CTYUA24NM":"Dundee City","CTYUA24NMW":" ","BNG_E":340291,"BNG_N":732145,"LONG":-2.97095,"LAT":56.47761,"GlobalID":"c577af85-65b5-4e03-9526-3b4875f0741a","local-authority code":null},"id":191},{"arcs":[[206]],"type":"Polygon","properties":{"CTYUA24CD":"W06000001","CTYUA24NM":"Isle of Anglesey","CTYUA24NMW":"Ynys Môn","BNG_E":245217,"BNG_N":378331,"LONG":-4.32298,"LAT":53.27931,"GlobalID":"da869837-8ab2-4742-971b-873ad970477f","local-authority code":null},"id":197},{"arcs":[[207,208,209,210,211]],"type":"Polygon","properties":{"CTYUA24CD":"W06000002","CTYUA24NM":"Gwynedd","CTYUA24NMW":"Gwynedd","BNG_E":280555,"BNG_N":334966,"LONG":-3.77716,"LAT":52.89884,"GlobalID":"41af3c45-928b-4919-bfc1-b02f44cf168b","local-authority code":null},"id":198},{"arcs":[[212,-212,213]],"type":"Polygon","properties":{"CTYUA24CD":"W06000003","CTYUA24NM":"Conwy","CTYUA24NMW":"Conwy","BNG_E":283293,"BNG_N":362563,"LONG":-3.74646,"LAT":53.1474,"GlobalID":"499fe889-f873-4881-907e-6aaf0cc31e85","local-authority code":null},"id":199},{"arcs":[[214,215,-208,-213,216,217]],"type":"Polygon","properties":{"CTYUA24CD":"W06000004","CTYUA24NM":"Denbighshire","CTYUA24NMW":"Sir Ddinbych","BNG_E":309843,"BNG_N":355416,"LONG":-3.34761,"LAT":53.08833,"GlobalID":"6ca7dea4-103b-4ef7-b457-170fd23bd93a","local-authority code":null},"id":200},{"arcs":[[-77,218,-218,219]],"type":"Polygon","properties":{"CTYUA24CD":"W06000005","CTYUA24NM":"Flintshire","CTYUA24NMW":"Sir y Fflint","BNG_E":321134,"BNG_N":369280,"LONG":-3.18248,"LAT":53.21472,"GlobalID":"c2f76fcf-29a9-48ea-9699-f3473e0f7d45","local-authority code":null},"id":201},{"arcs":[[-87,220,-215,-219,-76]],"type":"Polygon","properties":{"CTYUA24CD":"W06000006","CTYUA24NM":"Wrexham","CTYUA24NMW":"Wrecsam","BNG_E":333523,"BNG_N":345387,"LONG":-2.99203,"LAT":53.00167,"GlobalID":"93fb1fe0-d8e8-45a6-bd7e-55a9fe12e3b1","local-authority code":null},"id":202},{"arcs":[[221,222,223,-210,224]],"type":"Polygon","properties":{"CTYUA24CD":"W06000008","CTYUA24NM":"Ceredigion","CTYUA24NMW":"Ceredigion","BNG_E":267127,"BNG_N":268437,"LONG":-3.94993,"LAT":52.29795,"GlobalID":"c05fd4dc-cdd2-4204-a1e4-77e974aef749","local-authority code":null},"id":203},{"arcs":[[-223,225,226]],"type":"Polygon","properties":{"CTYUA24CD":"W06000009","CTYUA24NM":"Pembrokeshire","CTYUA24NMW":"Sir Benfro","BNG_E":199821,"BNG_N":221392,"LONG":-4.90818,"LAT":51.85514,"GlobalID":"31db2a2a-17a3-4c0d-af4b-f9d89249bad3","local-authority code":null},"id":204},{"arcs":[[227,228,229,230,-226,-222]],"type":"Polygon","properties":{"CTYUA24CD":"W06000010","CTYUA24NM":"Carmarthenshire","CTYUA24NMW":"Sir Gaerfyrddin","BNG_E":247955,"BNG_N":224133,"LONG":-4.21109,"LAT":51.89496,"GlobalID":"7e13638f-71f8-49cc-aaad-5161badcce1a","local-authority code":null},"id":205},{"arcs":[[231,232,-230]],"type":"Polygon","properties":{"CTYUA24CD":"W06000011","CTYUA24NM":"Swansea","CTYUA24NMW":"Abertawe","BNG_E":264022,"BNG_N":197308,"LONG":-3.96723,"LAT":51.65807,"GlobalID":"653e4fd4-a0df-4319-badf-fecea856bac7","local-authority code":null},"id":206},{"arcs":[[233,234,235,-232,-229]],"type":"Polygon","properties":{"CTYUA24CD":"W06000012","CTYUA24NM":"Neath Port Talbot","CTYUA24NMW":"Castell-nedd Port Talbot","BNG_E":279261,"BNG_N":195412,"LONG":-3.74638,"LAT":51.64451,"GlobalID":"1489a559-1381-4613-b815-6dce57af96c1","local-authority code":null},"id":207},{"arcs":[[-86,236,237,-234,-228,-225,-209,-216,-221]],"type":"Polygon","properties":{"CTYUA24CD":"W06000023","CTYUA24NM":"Powys","CTYUA24NMW":"Powys","BNG_E":302329,"BNG_N":273254,"LONG":-3.43532,"LAT":52.34864,"GlobalID":"af5e5479-f6a9-47f2-a060-e378e859a03a","local-authority code":null},"id":217},{"arcs":[[[238,239,-203,240,241]],[[242]],[[243]],[[244]],[[245]],[[246]],[[247]],[[248]],[[249]],[[250]],[[251]],[[252]],[[253]],[[254]],[[255]],[[256]],[[257]],[[258,259]],[[260]],[[261]]],"type":"MultiPolygon","properties":{"local-authority-code":"ABI","local-authority code":null}},{"arcs":[[262,-138,263,264,-165,-149,265,266]],"type":"Polygon","properties":{"local-authority-code":"LP1","local-authority code":null}},{"arcs":[[267,268,269,270,271,-192,-197,272]],"type":"Polygon","properties":{"local-authority-code":"LP2","local-authority code":null}},{"arcs":[[273,-269,274,-264,-137,275]],"type":"Polygon","properties":{"local-authority-code":"LP3","local-authority code":null}},{"arcs":[[[276,277,-276,-136,278]],[[279,280,281]]],"type":"MultiPolygon","properties":{"local-authority-code":"LP4","local-authority code":null}},{"arcs":[[[-33,282,-282,283,-147]],[[-171,-194,284,-271,285,286,287]]],"type":"MultiPolygon","properties":{"local-authority-code":"LP5","local-authority code":null}},{"arcs":[[[-265,-275,-268,-273,-196,-48,-105,-166]],[[288,-139,-263,-267]]],"type":"MultiPolygon","properties":{"local-authority-code":"LP6","local-authority code":null}},{"arcs":[[-286,-270,-274,-278,289,290]],"type":"Polygon","properties":{"local-authority-code":"LP7","local-authority code":null}},{"arcs":[[-281,291,-279,-135,-140,-289,-266,-148,-284]],"type":"Polygon","properties":{"local-authority-code":"LP8","local-authority code":null}},{"arcs":[[-272,-285,-193]],"type":"Polygon","properties":{"local-authority-code":"LP9","local-authority code":null}},{"arcs":[[-287,-291,292]],"type":"Polygon","properties":{"local-authority-code":"LP10","local-authority code":null}},{"arcs":[[293,-16,294,295,-188,-70,296,297]],"type":"Polygon","properties":{"local-authority-code":"MC2","local-authority code":null}},{"arcs":[[[298,-181,299,-108,300,-295,-15,-12]],[[-82,-187]],[[301,-158,302,-237,-85]],[[-189]]],"type":"MultiPolygon","properties":{"local-authority-code":"MC3","local-authority code":null}},{"arcs":[[-111,-113,-183,-153,-159,-302,-84,-186,303,-184,-296,-301],[-22]],"type":"Polygon","properties":{"local-authority-code":"MC4","local-authority code":null}},{"arcs":[[304,-24,305,-89,306,-133,307,308]],"type":"Polygon","properties":{"local-authority-code":"DVT","local-authority code":null}},{"arcs":[[-95,-131,309,-155]],"type":"Polygon","properties":{"CTYUA24CD":"E47000009","local-authority code":null}},{"arcs":[[-173,-126,310,-298,311]],"type":"Polygon","properties":{"CTYUA24CD":"E47000003","local-authority code":null}},{"arcs":[[-304,-185]],"type":"Polygon","properties":{"CTYUA24CD":"E47000007","local-authority code":null}},{"arcs":[[-175,-8,-174,-312,-297,-69,-74,-1,-7,312]],"type":"Polygon","properties":{"local-authority-code":"GMCA","CTYUA24CD":"E47000001","local-authority code":null}},{"arcs":[[313,-235,-238,-303,-157,314]],"type":"Polygon","properties":{"local-authority-code":"CCR","local-authority code":null}},{"arcs":[[315,316,-241,-202,317,318]],"type":"Polygon","properties":{"local-authority-code":"GCR","local-authority code":null}},{"arcs":[[319,-199,320,321,-116,322,323,-318,-201,324,325]],"type":"Polygon","properties":{"local-authority-code":"SES","local-authority code":null}},{"arcs":[[[-81,326,-4]],[[-6,327,-176,-313]],[[-79,328]]],"type":"MultiPolygon","properties":{"local-authority-code":"LCR","CTYUA24CD":"E47000004","local-authority code":null}},{"arcs":[[329,330,-128,-118,-122,-117,-322,331]],"type":"Polygon","properties":{"CTYUA24CD":"E47000010","local-authority-code":"NECA","local-authority code":null}},{"arcs":[[332,-129,-331]],"type":"Polygon","properties":{"CTYUA24CD":"E47000006","local-authority code":null}},{"arcs":[[333,-206,334,-325,-204,-240,335]],"type":"Polygon","properties":{"local-authority-code":"PKA","local-authority code":null}},{"arcs":[[336,-18,337,-124,-20,-123,338]],"type":"Polygon","properties":{"local-authority-code":"HYCA","gss":"E47000016","CTYUA24CD":"E47000016","local-authority code":null}},{"arcs":[[[-319,-324,339,-316]],[[340]]],"type":"MultiPolygon","properties":{"local-authority-code":"AYR","local-authority code":null}},{"arcs":[[-164,341,-308,-132,-93]],"type":"Polygon","properties":{"local-authority-code":"BCPD","local-authority code":null}},{"arcs":[[-294,-311,-125,-338,-17]],"type":"Polygon","properties":{"CTYUA24CD":"E47000002","local-authority code":null}},{"arcs":[[[-336,-239,342,-260,343]],[[344]],[[345]],[[346]]],"type":"MultiPolygon","properties":{"local-authority-code":"NSC","local-authority code":null}},{"arcs":[[-109,-300,-180,-191,-151,-167,-100,-99]],"type":"Polygon","properties":{"local-authority-code":"CPCA","CTYUA24CD":"E47000008","local-authority code":null}},{"arcs":[[347]],"type":"Polygon","properties":{"LAD24CD":"E06000044","LAD24NM":"Portsmouth","LAD24NMW":" ","BNG_E":465619,"BNG_N":101352,"LONG":-1.07006,"LAT":50.808,"GlobalID":"1d9ed475-b7f2-4fd2-8f05-b406f44d8a1c"},"id":42}]}}}