{"type":"Topology","arcs":[[[4506,5399],[42,-28],[-10,-77]],[[4538,5294],[-42,-8],[-81,24]],[[4415,5310],[72,93],[19,-4]],[[4533,5240],[35,-91]],[[4568,5149],[-58,8]],[[4510,5157],[-33,30],[22,63],[34,-10]],[[4798,5212],[-58,-69],[-46,-11],[-126,17]],[[4533,5240],[8,8]],[[4541,5248],[21,43],[236,-79]],[[4538,5294],[3,-46]],[[4510,5157],[-71,-51],[-59,26]],[[4380,5132],[-3,122]],[[4377,5254],[38,56]],[[4380,5132],[-73,-19],[-42,56],[-56,18]],[[4209,5187],[9,93],[81,-29],[78,3]],[[3625,3811],[-31,-20],[-72,11]],[[3522,3802],[49,45]],[[3571,3847],[54,-36]],[[3562,3883],[0,-29]],[[3562,3854],[-89,-33]],[[3473,3821],[6,19]],[[3479,3840],[48,62]],[[3527,3902],[35,-19]],[[3693,3968],[26,-51]],[[3719,3917],[16,-33]],[[3735,3884],[-60,-50]],[[3675,3834],[-50,-23]],[[3571,3847],[-9,7]],[[3562,3883],[18,49],[57,20]],[[3637,3952],[56,16]],[[3770,4201],[-4,-40]],[[3766,4161],[-87,-4]],[[3679,4157],[-32,135],[62,39],[21,-70],[40,-60]],[[3324,4326],[6,111]],[[3330,4437],[18,-6],[16,-107],[-40,2]],[[5151,4277],[-109,-16]],[[5042,4261],[17,82],[50,25],[42,-36],[0,-55]],[[5176,4758],[75,-33],[-75,-82],[0,-55],[37,-120],[77,-128],[100,-144],[-110,-37],[-32,8],[-97,110]],[[5042,4261],[-81,-13],[-57,29],[-45,-49]],[[4859,4228],[-108,-59]],[[4751,4169],[-53,24],[-67,-4]],[[4631,4189],[7,43],[50,8],[22,74],[-13,108],[16,22]],[[4713,4444],[-1,126]],[[4712,4570],[30,28],[125,16],[81,72],[25,-10],[63,59],[129,-6],[11,29]],[[5325,4044],[-53,-10],[-36,-97],[-58,60],[13,91],[-67,53]],[[5124,4141],[60,31]],[[5184,4172],[141,-128]],[[5124,4141],[-28,-62],[-45,-47],[-55,-14],[-41,-51],[-50,-2],[2,62],[-74,8],[-38,-74]],[[4795,3961],[-67,23],[-23,31]],[[4705,4015],[28,40],[18,114]],[[4859,4228],[57,27],[58,-42],[34,23],[115,19],[61,-83]],[[4713,4444],[-55,11],[-64,-16],[-61,56],[-16,56],[47,17],[60,76],[37,-2],[51,-72]],[[4410,3335],[-23,-42],[-77,28],[-10,28],[58,40],[52,-54]],[[4631,3054],[-61,-75],[-31,59],[8,42],[84,-26]],[[4992,3038],[-41,-53],[-67,-28],[-35,-50]],[[4849,2907],[-51,82],[-19,134],[103,46]],[[4882,3169],[35,4],[76,-56],[41,-6],[-42,-73]],[[4607,3387],[-43,-13],[-61,19],[41,73],[63,-79]],[[3610,2659],[-8,-74],[87,18],[68,-54],[-19,-41],[46,-32],[0,-140]],[[3784,2336],[-94,-46],[37,-95],[-138,-80]],[[3589,2115],[-58,12],[-19,50],[-71,60],[-62,-33],[-62,89]],[[3317,2293],[-38,108],[-6,68],[84,142],[3,66],[31,31]],[[3391,2708],[23,42],[74,2],[59,-90],[63,-3]],[[3806,3143],[-39,7],[-40,-142],[-41,17],[-79,79],[-27,70],[161,76]],[[3741,3250],[65,-107]],[[3895,3548],[36,-29],[29,-111],[-65,-24],[-38,145],[38,19]],[[3820,1665],[4,-118]],[[3824,1547],[-106,-58],[-69,33],[-45,-23],[-44,40]],[[3560,1539],[32,64],[36,26]],[[3628,1629],[52,36]],[[3680,1665],[27,-15],[82,27],[31,-12]],[[3573,1795],[15,-35],[89,-21],[3,-74]],[[3628,1629],[-23,59],[-39,35]],[[3566,1723],[7,72]],[[3560,1539],[-76,-19],[-115,5]],[[3369,1525],[16,87],[33,16],[74,101],[47,19],[27,-25]],[[3835,1833],[13,-57],[-25,-46],[-3,-65]],[[3573,1795],[86,156]],[[3659,1951],[102,-47],[14,-41],[60,-30]],[[2629,438],[-39,23],[11,68]],[[2601,529],[83,-29],[-9,-51],[-46,-11]],[[4218,1961],[-5,-96],[57,-98]],[[4270,1767],[-127,-39],[-36,69],[17,90],[25,47]],[[4149,1934],[69,27]],[[5294,3061],[13,-76],[-114,-28],[-70,-70],[-35,66],[-44,16]],[[5044,2969],[-50,4],[-1,65]],[[4993,3038],[103,39],[49,-27],[149,11]],[[5063,2216],[20,-46]],[[5083,2170],[-44,-22],[-54,50],[78,18]],[[5849,1791],[-26,-21],[-101,19]],[[5722,1789],[9,43],[118,-41]],[[5646,1785],[-49,-83],[-60,-11],[-84,43]],[[5453,1734],[66,85]],[[5519,1819],[96,-13],[31,-21]],[[5726,1620],[-20,-64],[-63,25],[-67,-2],[58,71],[-21,49]],[[5613,1699],[57,32],[58,-47],[-2,-64]],[[4880,1614],[-71,-60]],[[4809,1554],[-40,25]],[[4769,1579],[32,21],[-8,79]],[[4793,1679],[12,31],[79,-28],[-4,-68]],[[4640,1718],[22,-56]],[[4662,1662],[10,-72]],[[4672,1590],[-124,-7],[-48,18],[-105,0],[-12,-41],[-45,-8]],[[4338,1552],[2,46],[-39,29],[21,59],[-40,88]],[[4282,1774],[19,32],[55,-28],[29,19],[108,-9],[78,-24],[69,-46]],[[4696,1699],[-34,-37]],[[4640,1718],[56,-19]],[[4995,1739],[-12,-29]],[[4983,1710],[-10,3]],[[4973,1713],[-77,34]],[[4896,1747],[49,11],[50,-19]],[[4973,1713],[-46,-33],[-15,-57],[-32,-9]],[[4793,1679],[-27,117]],[[4766,1796],[81,37],[10,-75],[39,-11]],[[4769,1579],[-97,11]],[[4696,1699],[52,50],[-18,47]],[[4730,1796],[36,0]],[[4929,2438],[-33,-83],[-7,-78]],[[4889,2277],[-39,23],[-59,-4],[-44,61]],[[4747,2357],[26,37],[2,69],[80,67]],[[4855,2530],[24,3]],[[4879,2533],[50,-95]],[[5227,1050],[33,-16],[30,-83]],[[5290,951],[-117,33]],[[5173,984],[-18,39],[72,27]],[[4426,1041],[-74,56]],[[4352,1097],[46,32],[56,-63],[-28,-25]],[[4460,915],[63,-38],[69,-15],[25,-38],[-58,-43],[-16,-60],[-76,-24],[-120,103],[10,49],[76,34],[27,32]],[[4298,5579],[35,-12],[16,-70],[88,58]],[[4437,5555],[29,-105],[40,-51]],[[4209,5187],[-54,-5],[-8,-54],[-98,-35],[-66,24],[-81,-19]],[[3902,5098],[-2,85],[-86,72],[11,62],[-44,54],[28,105]],[[3809,5476],[61,-10],[52,68],[37,-5],[66,35],[71,-20],[33,63]],[[4129,5607],[61,2],[108,-30]],[[3808,3851],[48,2]],[[3856,3853],[137,12]],[[3993,3865],[15,-18],[-2,-106],[15,-53]],[[4021,3688],[-54,-48],[-56,-13],[-60,-79],[-87,-43],[1,-62]],[[3765,3443],[-97,-58],[-68,57],[-43,-2]],[[3557,3440],[20,50],[-56,34],[31,56],[53,37],[54,-1],[56,60],[31,3],[10,69],[-68,27],[-13,59]],[[3735,3884],[73,-33]],[[3557,3440],[-18,-14]],[[3539,3426],[-71,16],[-16,72],[-68,82]],[[3384,3596],[28,64],[-75,71],[-32,6]],[[3305,3737],[-24,37],[5,6],[4,2]],[[3290,3782],[117,13]],[[3407,3795],[48,-18],[67,25]],[[3806,3143],[45,-57],[-8,-180],[-35,-39],[18,-39]],[[3826,2828],[-50,-18],[-3,-58],[-70,-24],[-93,-69]],[[3391,2708],[-56,-6],[-75,49],[-53,63],[81,64],[54,3],[10,84],[-64,-39],[-3,50],[42,70],[3,50],[36,59],[-36,33],[-74,26],[21,82],[-12,26]],[[3265,3322],[33,45],[75,32],[91,-18],[28,-53],[46,34],[1,64]],[[3765,3443],[-4,-50],[-55,-54],[35,-89]],[[2354,1098],[55,-18],[26,-54],[-19,-90],[43,-43],[47,-184],[73,-107],[-1,-62]],[[2578,540],[-18,-117],[-51,32],[-84,0],[-23,-32],[-138,-16],[-47,13],[-27,-114],[-42,6],[-78,-95],[-42,22],[-30,-51],[23,-83],[-71,-56],[-29,-49],[-69,142],[-108,48],[-43,-24],[-18,-63],[-66,-18],[-25,38],[4,67],[111,99],[95,11],[45,21],[112,116],[4,68],[67,41],[14,95],[100,79],[48,2],[20,82],[55,30],[17,50],[60,47],[-5,138],[15,29]],[[4270,1767],[12,7]],[[4338,1552],[-22,-15],[-2,-77],[-47,4],[-53,-42],[41,-110],[-2,-135],[-21,-61],[-113,74],[-79,-23]],[[4040,1167],[-94,-51],[-91,143],[-55,9]],[[3800,1268],[-25,46],[43,63],[35,89],[-29,81]],[[3835,1833],[42,29],[36,-15],[62,94],[52,-39],[23,36],[42,-21],[57,17]],[[5152,2522],[-63,-44],[-25,-81],[-36,-13],[-99,54]],[[4879,2533],[67,66],[34,69],[32,10]],[[5012,2678],[53,-59],[6,-42],[58,4],[23,-59]],[[5152,2522],[69,-53],[-9,-65]],[[5212,2404],[-161,-169],[12,-19]],[[5083,2170],[-129,-54]],[[4954,2116],[-19,50],[-78,42],[32,69]],[[4362,5797],[-16,-24],[-98,13]],[[4248,5786],[-74,-45],[-13,-49]],[[4161,5692],[-41,-32],[9,-53]],[[3809,5476],[-71,59],[-49,-37],[-56,40]],[[3633,5538],[6,194],[59,27],[-114,108],[-21,60]],[[3563,5927],[41,83],[99,106],[63,-7],[21,57],[103,70],[-34,106],[-62,88],[57,22],[106,124],[33,56]],[[3990,6632],[61,-103],[196,-160],[30,-98],[8,-97],[-18,-26],[39,-70],[-14,-57],[46,-98],[-18,-29],[42,-97]],[[4140,947],[11,-35],[61,-31]],[[4212,881],[-45,-22],[-68,-2],[-45,-20],[-68,23]],[[3986,860],[20,72],[61,-10],[33,38],[40,-13]],[[4040,1167],[97,-144],[3,-76]],[[3986,860],[-1,-2],[32,-57],[33,6],[-7,-88],[-103,4],[-203,43],[-31,-59],[-109,91],[-102,61],[-77,18],[-23,-18]],[[3395,859],[-4,117]],[[3391,976],[42,32],[63,3],[86,39],[37,45],[1,56],[65,20],[30,-50],[73,33],[-24,30],[36,84]],[[4954,2116],[-18,-23],[-83,16],[25,-62],[76,-36],[-7,-26],[41,-127]],[[4988,1858],[17,-46],[-10,-73]],[[4730,1796],[-27,30],[-7,65],[45,59],[-5,43],[-43,45],[-82,-2],[-29,43],[40,57],[-20,55],[-16,138]],[[4586,2329],[-3,34],[111,41],[53,-47]],[[4992,3038],[1,0]],[[5044,2969],[1,-61],[38,-22],[-4,-82],[-52,-56],[-15,-70]],[[4855,2530],[-15,52],[-48,16],[-10,65],[17,53],[-53,52],[-18,66]],[[4728,2834],[21,76],[72,-18],[28,15]],[[4586,2329],[-51,-42],[-57,1],[-19,82],[43,53],[-55,80]],[[4447,2503],[50,34],[-8,42],[34,34],[26,103],[-17,46]],[[4532,2762],[162,92],[34,-20]],[[3633,5538],[-47,10],[-34,-43],[-102,23],[-106,-101],[-25,-54],[-14,-99],[51,-20],[-11,-74],[-87,-113],[-24,-87],[-31,-34],[8,-61]],[[3211,4885],[3,-33],[-63,-57],[-64,107],[-2,61],[-139,195],[30,47],[13,112],[41,76],[46,46],[24,124],[75,83],[52,15],[34,-25],[59,59],[2,0],[5,8]],[[3327,5703],[18,51],[43,15],[65,66]],[[3453,5835],[110,92]],[[3902,5098],[-52,-7],[-38,-36],[6,-49],[-18,-153],[-88,-17]],[[3712,4836],[-75,-35],[-41,7],[-26,-46],[-78,42],[-26,-27]],[[3466,4777],[-56,-27],[-49,5],[-23,47],[-46,-88],[-44,-42],[-45,31],[29,136],[-21,46]],[[4631,4189],[-119,-39]],[[4512,4150],[-9,80],[-37,56]],[[4466,4286],[8,25],[-40,106],[26,10],[3,78],[-58,9],[-24,-35],[-123,-9],[-69,8]],[[4189,4478],[-99,60],[-56,-13],[-9,-92],[-42,-23]],[[3983,4410],[-44,74],[-45,22],[-31,53],[-42,-9],[-53,85],[-58,30],[-65,58],[67,113]],[[4798,5212],[80,-66],[63,-21],[34,-40],[68,-130],[31,-94],[68,-36],[34,-67]],[[3391,976],[-54,33],[-11,65],[-88,2],[-151,137],[-126,-17],[-21,48],[-103,66],[-23,69],[75,4],[3,60]],[[2892,1443],[146,-11],[61,-46],[81,-3],[81,32],[50,-9],[48,28],[-12,45],[22,46]],[[3766,4161],[26,-111]],[[3792,4050],[-74,-5]],[[3718,4045],[-77,22],[-36,52]],[[3605,4119],[74,38]],[[3836,4143],[22,-86]],[[3858,4057],[-12,-24]],[[3846,4033],[-54,17]],[[3770,4201],[66,-58]],[[3858,4057],[33,-11]],[[3891,4046],[15,-42]],[[3906,4004],[3,-43]],[[3909,3961],[-57,-67],[4,-41]],[[3808,3851],[9,90],[23,40]],[[3840,3981],[6,52]],[[4006,4145],[65,-89]],[[4071,4056],[-35,-32]],[[4036,4024],[-59,25],[-71,-45]],[[3891,4046],[50,80],[54,28]],[[3995,4154],[11,-9]],[[3836,4143],[16,54],[55,-24],[10,45]],[[3917,4218],[62,2],[16,-66]],[[3840,3981],[-86,-16],[-35,-48]],[[3693,3968],[36,4],[-11,73]],[[3995,3932],[-2,-67]],[[3909,3961],[86,-29]],[[4036,4024],[-41,-92]],[[3637,3952],[-100,84]],[[3537,4036],[26,95],[42,-12]],[[3475,3996],[52,-94]],[[3479,3840],[-48,72],[16,43],[-35,29]],[[3412,3984],[22,33]],[[3434,4017],[41,-21]],[[3473,3821],[-96,53],[-22,68]],[[3355,3942],[57,42]],[[3475,3996],[62,40]],[[3395,4226],[5,-34],[-58,-64],[-11,-67],[103,-44]],[[3355,3942],[-62,132],[30,76],[72,76]],[[3290,3782],[-62,98],[107,68],[24,-78],[48,-75]],[[4436,4108],[33,-37],[-9,-42]],[[4460,4029],[-45,0],[-49,-48]],[[4366,3981],[-159,35],[-66,-25]],[[4141,3991],[-13,46]],[[4128,4037],[134,47],[19,50]],[[4281,4134],[36,-15],[55,21],[64,-32]],[[4705,4015],[-39,-74],[-78,-34]],[[4588,3907],[-80,29],[-8,50],[-40,43]],[[4436,4108],[59,9],[17,33]],[[4588,3907],[-16,-74],[-39,-35]],[[4533,3798],[-81,20]],[[4452,3818],[-5,26],[-81,137]],[[4452,3818],[-57,15],[-81,-42],[-41,7],[-35,92],[-57,32],[-40,69]],[[4248,5786],[24,-61],[46,-30]],[[4318,5695],[-4,-21]],[[4314,5674],[-68,-7],[-85,25]],[[4354,5698],[-36,-3]],[[4362,5797],[27,-62],[-35,-37]],[[4426,5649],[-96,-13]],[[4330,5636],[-16,38]],[[4354,5698],[31,22],[41,-71]],[[4298,5579],[32,57]],[[4426,5649],[11,-94]],[[4149,2979],[23,-85]],[[4172,2894],[-75,-123]],[[4097,2771],[-84,-27],[-11,59]],[[4002,2803],[1,33]],[[4003,2836],[48,41],[14,56]],[[4065,2933],[29,42]],[[4094,2975],[55,4]],[[4271,2753],[4,76]],[[4275,2829],[89,-1],[23,-25],[-26,-68],[-90,18]],[[3964,2935],[10,-100],[29,1]],[[4002,2803],[-97,-3]],[[3905,2800],[-18,83],[38,58]],[[3925,2941],[39,-6]],[[3964,2935],[15,4]],[[3979,2939],[26,19],[60,-25]],[[4271,2753],[-60,-44],[-116,19]],[[4095,2728],[2,43]],[[4172,2894],[50,-88],[53,23]],[[3979,2939],[1,76]],[[3980,3015],[86,16],[28,-56]],[[3925,2941],[-40,59],[41,34],[54,-19]],[[4189,4478],[21,-60],[-11,-84],[20,-31]],[[4219,4303],[-58,-34]],[[4161,4269],[-25,43],[-114,36],[-49,34]],[[3973,4382],[10,28]],[[4161,4269],[15,-36],[-170,-88]],[[3917,4218],[-17,47],[29,87],[44,30]],[[4219,4303],[72,-57]],[[4291,4246],[-29,-32],[19,-80]],[[4128,4037],[-57,19]],[[4466,4286],[-63,-25],[-73,12],[-39,-27]],[[5262,1753],[-19,4]],[[5243,1757],[-1,0]],[[5242,1757],[0,6]],[[5242,1763],[4,4]],[[5246,1767],[14,1]],[[5260,1768],[3,2]],[[5263,1770],[-1,-17]],[[5419,1759],[-41,4]],[[5378,1763],[-19,32]],[[5359,1795],[52,62]],[[5411,1857],[27,-52],[-19,-46]],[[5196,1936],[28,-66]],[[5224,1870],[-21,-44]],[[5203,1826],[-27,-19]],[[5176,1807],[-35,51]],[[5141,1858],[-25,42]],[[5116,1900],[80,36]],[[5459,1721],[-47,-80]],[[5412,1641],[-48,28]],[[5364,1669],[28,89]],[[5392,1758],[67,-37]],[[5176,1807],[14,-20]],[[5190,1787],[-16,-9]],[[5174,1778],[-8,2]],[[5166,1780],[-12,3]],[[5154,1783],[-58,26]],[[5096,1809],[45,49]],[[5412,1641],[-8,-72],[-62,-59]],[[5342,1510],[-26,42]],[[5316,1552],[-53,102]],[[5263,1654],[1,1]],[[5264,1655],[3,6]],[[5267,1661],[67,19]],[[5334,1680],[30,-11]],[[5222,1823],[24,-56]],[[5242,1763],[-52,24]],[[5203,1826],[19,-3]],[[5316,1552],[-26,10],[-56,-59],[-22,39]],[[5212,1542],[15,79]],[[5227,1621],[4,25]],[[5231,1646],[32,8]],[[5154,1783],[-4,-35]],[[5150,1748],[-100,-3]],[[5050,1745],[19,62]],[[5069,1807],[27,2]],[[5307,1950],[0,-39]],[[5307,1911],[-19,-46]],[[5288,1865],[-64,5]],[[5196,1936],[50,27],[61,-13]],[[5334,1680],[-32,39]],[[5302,1719],[14,31],[58,5],[2,1],[16,2]],[[5303,1803],[1,-9]],[[5304,1794],[-41,-24]],[[5260,1768],[-13,50]],[[5247,1818],[28,15]],[[5275,1833],[28,-30]],[[5166,1780],[33,-60]],[[5199,1720],[-28,-6]],[[5171,1714],[-15,18]],[[5156,1732],[-6,16]],[[5288,1865],[-13,-32]],[[5247,1818],[-25,5]],[[5069,1807],[-17,67]],[[5052,1874],[64,26]],[[5453,1734],[-34,25]],[[5411,1857],[-6,28]],[[5405,1885],[56,10],[58,-76]],[[5050,1745],[-34,-49]],[[5016,1696],[-33,14]],[[4988,1858],[64,16]],[[5156,1732],[-32,-1],[-64,-73]],[[5060,1658],[-44,38]],[[5174,1778],[43,-50]],[[5217,1728],[-18,-8]],[[5152,1669],[7,-49]],[[5159,1620],[-4,-10]],[[5155,1610],[-47,15]],[[5108,1625],[41,49]],[[5149,1674],[3,-5]],[[5231,1646],[-8,8]],[[5223,1654],[8,75]],[[5231,1729],[11,28]],[[5243,1757],[21,-102]],[[5300,1727],[2,-7],[0,-1]],[[5267,1661],[27,77]],[[5294,1738],[6,-11]],[[5227,1621],[-68,-1]],[[5152,1669],[71,-15]],[[5378,1763],[-59,-9]],[[5319,1754],[-15,40]],[[5303,1803],[26,5]],[[5329,1808],[30,-13]],[[5329,1808],[0,83]],[[5329,1891],[33,-27],[43,21]],[[5171,1714],[-22,-40]],[[5108,1625],[-48,33]],[[5262,1753],[5,-2]],[[5267,1751],[27,-13]],[[5212,1542],[-57,68]],[[5319,1754],[-52,-3]],[[5307,1911],[22,-20]],[[5217,1728],[14,1]],[[5427,3149],[-12,-64],[42,-68],[-18,-26],[10,-89],[105,-22],[40,-74]],[[5594,2806],[-35,-30],[32,-91],[52,-51],[-52,-33],[59,-31],[-15,-70],[-49,-7],[-17,-48],[9,-59]],[[5578,2386],[-38,-18],[-45,49],[-48,0],[-88,-99]],[[5359,2318],[-18,55],[-39,12],[-70,-49],[-20,68]],[[5294,3061],[53,23],[-3,37],[83,28]],[[4533,3798],[2,-142],[-82,-27],[14,-68],[-28,-41],[41,-133],[9,-84]],[[4489,3303],[-51,-7],[-80,-115],[-55,-3],[-29,-72]],[[4274,3106],[-70,36],[24,60],[37,-4],[17,57],[-27,26],[-132,34],[-18,44],[19,60],[43,26],[2,43],[-67,171],[-81,29]],[[5870,1092],[-51,4],[-76,-65],[-182,-56],[-76,-93],[-33,0],[-162,69]],[[5227,1050],[13,101],[59,5],[7,106],[26,75]],[[5332,1337],[16,3]],[[5348,1340],[53,6],[26,-37],[99,9],[97,-105],[63,-31],[59,17],[76,-32],[49,-75]],[[6010,2256],[141,-16],[-56,-58],[21,-76],[-67,-48],[-55,-6],[-39,73],[-52,-34],[-14,-54],[43,-32],[-9,-110],[-49,-12],[-35,-40],[10,-52]],[[5722,1789],[-48,-32],[-28,28]],[[5307,1950],[-1,70],[26,36],[78,25],[18,99],[-32,1],[-11,99],[-26,38]],[[5578,2386],[64,-13],[118,38],[57,-133],[51,-11],[49,18],[93,-29]],[[4163,2440],[67,-93],[-1,-50]],[[4229,2297],[13,-73],[-26,-64],[2,-70],[-24,-24],[24,-105]],[[3659,1951],[-79,-52]],[[3580,1899],[-16,107],[25,109]],[[3784,2336],[16,-51],[49,-11],[41,60],[83,-6],[127,45],[63,67]],[[4809,1554],[30,-86],[-49,-12],[-29,-39],[63,-140]],[[4824,1277],[-94,-74],[-40,-149],[16,-51]],[[4706,1003],[-58,-15],[-59,13],[-18,-79],[-108,76],[-37,43]],[[4352,1097],[100,-115],[-12,-46],[-104,-36],[-51,-41],[-73,22]],[[5459,1721],[35,-28],[70,-12],[49,18]],[[5726,1620],[61,11],[25,-41],[86,-25],[89,27],[266,25],[-11,-69],[-35,-14],[22,-95],[-18,-101],[-118,-73],[-88,-19],[-42,-40],[-21,-63],[9,-63],[-81,12]],[[5348,1340],[-11,81],[5,89]],[[5901,1651],[32,-50],[-120,-3],[-11,86],[99,-33]],[[3395,4226],[9,49],[-69,18],[-11,33]],[[3330,4437],[-2,52],[126,42],[-32,93],[70,100],[-26,53]],[[4532,2762],[-68,110],[-141,87],[-26,28],[7,82],[-25,22]],[[4279,3091],[-5,15]],[[4489,3303],[4,-72],[41,-24],[53,34],[87,2],[82,96],[52,80]],[[4808,3419],[0,-81],[62,-105],[12,-64]],[[5325,4044],[74,-33],[67,-109],[59,-159],[21,-79],[-3,-91],[-129,-119],[-52,-85],[3,-38],[64,-28],[59,-68]],[[5488,3235],[4,-47],[-65,-39]],[[4808,3419],[-12,38],[66,64],[-24,164],[-30,41],[20,64],[-29,93],[-4,78]],[[6448,2915],[-48,21],[-25,-27],[20,-66],[-66,-12],[-50,16],[-175,-132],[-94,26],[-66,-10],[-24,22],[-156,10],[18,59],[-107,7],[-81,-23]],[[5488,3235],[57,-6],[52,50],[37,107],[132,36],[183,1],[97,-33],[116,-20],[85,-58],[101,-91],[72,-89],[26,-89],[2,-128]],[[4229,2297],[35,-36],[59,47],[23,111],[66,0],[35,84]],[[4279,3091],[-36,-34],[-14,-73],[-80,-5]],[[3905,2800],[-79,28]],[[6448,2915],[15,-57],[-58,-190],[-27,-42],[-7,-100],[-28,-115],[-51,-19],[-45,-72],[-57,-57],[-66,5],[-114,-12]],[[5332,1337],[-107,3],[-25,28],[-81,-48],[-59,-9],[-96,-40],[-140,6]],[[4163,2440],[-47,45],[-68,3],[17,72],[-13,65],[33,12],[10,91]],[[5173,984],[-142,-29],[-86,-5],[-119,-41],[-26,-45],[-76,59],[-18,80]],[[2951,6997],[-72,-63]],[[2879,6934],[-36,32]],[[2843,6966],[-18,-5]],[[2825,6961],[-28,20],[24,88]],[[2821,7069],[153,-26],[-23,-46]],[[2718,6239],[105,-23],[75,-91],[31,-81],[58,42],[-3,64],[46,30]],[[3030,6180],[95,5],[38,-84],[56,39],[59,-19],[86,-103],[51,10],[35,-47],[-27,-71],[30,-75]],[[3327,5703],[-63,-31],[-117,17],[-97,-13],[-69,9],[-8,-117],[-86,9],[-68,-67],[-100,-60],[-113,14],[-14,32],[-162,85],[10,-63],[39,-17],[-26,-153],[-115,68],[-19,44],[-142,102],[-77,-39],[-48,-56],[-83,77],[-31,73],[4,81],[51,37],[40,-24]],[[2033,5711],[71,61],[141,-16],[58,34],[-21,59],[61,42],[67,15]],[[2410,5906],[53,35],[12,65],[38,59],[65,9],[40,-38],[36,75],[-4,69],[68,59]],[[2548,6483],[30,-109],[79,-18],[27,28],[52,-58],[-43,-55],[25,-32]],[[2410,5906],[20,95],[-6,61],[-58,48],[23,135],[61,47],[-8,48],[-69,14],[-49,36]],[[2324,6390],[14,59],[-25,31],[52,77]],[[2365,6557],[47,8],[37,-43],[99,-39]],[[3775,6784],[-67,-69],[-83,-63],[-48,21],[-71,-3],[-45,-29]],[[3461,6641],[-157,128]],[[3304,6769],[7,17]],[[3311,6786],[105,33],[65,99],[101,-4],[77,-62],[63,-19],[53,-49]],[[2546,6602],[18,-64],[-16,-55]],[[2365,6557],[-13,24]],[[2352,6581],[108,64]],[[2460,6645],[79,-13],[7,-30]],[[409,7919],[21,65],[79,-15],[-37,-47],[-63,-3]],[[545,8440],[51,-57],[12,-83],[-26,-66],[22,-136],[-91,0],[-26,52],[-14,98],[25,74],[-11,97],[58,21]],[[537,8525],[51,-2],[34,-71],[-67,-12],[-54,21],[-12,53],[48,11]],[[591,8627],[-46,-41],[-127,79],[29,65],[128,2],[105,-110],[-89,5]],[[921,9060],[53,-80],[-90,17],[30,-61],[-83,-54],[-38,-63],[-42,16],[-49,61],[56,43],[35,119],[-89,18],[12,85],[-48,92],[56,124],[36,0],[65,-50],[103,12],[-59,93],[113,82],[69,13],[72,79],[89,53],[77,-16],[9,-41],[-34,-71],[17,-33],[-81,-79],[22,-70],[52,45],[33,-30],[-64,-46],[-62,11],[-13,-41],[-55,-50],[55,-51],[-14,-74],[-40,-12],[-14,-58],[-45,-24],[-72,1],[-62,40]],[[3030,6848],[-60,-5],[-68,-71],[-77,-43]],[[2825,6729],[-53,47],[-76,103]],[[2696,6879],[30,23],[105,5],[-6,54]],[[2843,6966],[80,-101],[107,-17]],[[1192,8049],[46,-27],[2,-79],[-36,-37],[-97,82],[85,61]],[[1421,8541],[-35,-74],[26,-80],[-62,-9],[20,124],[51,39]],[[1177,8783],[105,-85],[35,-100],[-6,-197],[29,-59],[141,-92],[86,41],[57,-11],[-1,-63],[-73,-48],[-103,-145],[-63,16],[28,131],[-71,1],[-43,33],[-101,-43],[-84,116],[11,71],[-31,79],[-59,-7],[6,-57],[-102,37],[-40,98],[42,63],[166,-15],[63,17],[-19,110],[27,109]],[[2863,8695],[53,-159],[-12,-61],[129,28],[59,-42],[12,-60],[-64,-75],[41,-93],[-15,-52],[-55,-12],[-51,-61],[-45,-20]],[[2915,8088],[-42,-21],[3,-68],[-37,-91]],[[2839,7908],[-88,-1],[-21,-41],[-131,6],[-38,-53],[-95,-29],[-44,-66],[-50,36],[-48,-127],[-79,-58],[57,-30]],[[2302,7545],[-65,-32],[-100,-25],[-44,11],[-31,-38],[-66,-15]],[[1996,7446],[-1,8]],[[1995,7454],[12,83],[-87,26],[-73,-13]],[[1847,7550],[46,57],[-70,14],[-82,-83],[-42,-67],[-86,-61],[-57,40],[-87,21],[-62,78],[35,78],[-128,-6],[-49,23],[21,59],[83,2],[126,60],[83,97],[-118,-15],[61,143],[64,11],[-46,55],[94,68],[-26,48],[40,35],[-7,48],[33,32],[-89,30],[28,51],[-67,5],[-11,105],[-44,40],[24,118],[82,-25],[39,-51],[40,51],[-75,8],[-63,87],[-9,244],[86,10],[9,-72],[57,40],[-49,59],[63,32],[12,-53],[57,-20],[20,64],[119,10],[31,45],[-75,36],[-88,83],[105,14],[2,46],[-54,116],[165,59],[-43,86],[38,94],[39,41],[-45,29],[117,134],[45,7],[52,-43],[35,9],[58,-58],[42,51],[211,-58],[120,34],[198,13],[78,60],[78,1],[110,-31],[92,62],[132,-7],[-29,-90],[-37,-41],[50,-59],[-38,-119],[-74,-74],[-105,-40],[-83,-111],[-154,-118],[-38,-12],[-28,-57],[-89,-43],[-18,-123],[99,-40],[-76,-148],[-63,42],[-62,-53],[2,-32],[111,22],[-117,-125],[-39,-74],[36,-17],[90,83],[19,47],[99,-9],[62,43]],[[2309,6768],[11,-58],[-29,-46],[-70,12]],[[2221,6676],[-90,28]],[[2131,6704],[6,78],[40,22],[132,-36]],[[3461,6641],[-68,0],[-81,-67],[-176,38],[-16,35]],[[3120,6647],[48,47],[87,27],[49,48]],[[3491,8769],[19,-52],[-26,-45],[82,-81],[-67,-34],[-29,33],[-91,-46],[-31,-54],[43,-82],[2,-67],[-45,-64],[-47,25],[-76,-31],[-47,-76],[-48,-13],[21,-54],[-36,-36],[-141,-17],[-59,13]],[[2863,8695],[49,31],[105,7],[44,45],[77,24],[206,-70],[95,47],[52,-10]],[[2221,6676],[59,-102],[72,7]],[[2324,6390],[-43,-33]],[[2281,6357],[-61,70],[-27,1],[-71,104],[30,28],[-21,144]],[[1885,6531],[69,-48],[51,-143],[-1,-112],[-74,-24],[-76,36],[-27,47],[12,49],[-37,70],[19,76],[64,49]],[[3192,10006],[-24,-10],[-90,108],[21,55],[49,6],[74,-55],[6,-84],[-36,-20]],[[3232,10422],[126,-93],[-2,-70],[57,-51],[41,23],[90,-55],[-115,-133],[-57,162],[-140,-55],[-21,59],[-82,-2],[-7,58],[33,136],[77,21]],[[3315,10621],[82,21],[-22,-91],[-60,70]],[[3030,6180],[-20,35],[34,84],[-28,107],[86,112],[-48,68]],[[3054,6586],[50,56]],[[3104,6642],[16,5]],[[3775,6784],[91,-13],[97,-69],[27,-70]],[[4315,11585],[-11,46],[-91,17],[13,78],[66,-10],[150,72],[-74,65],[-2,84],[-102,-19],[1,40],[61,26],[109,89],[22,-79],[-32,-16],[39,-66],[50,31],[100,-122],[-27,-96],[-44,-80],[26,-50],[-58,-178],[8,-42],[-33,-84],[-60,0],[2,54],[58,148],[-50,116],[-79,-47],[-42,23]],[[4663,12198],[11,-93],[-41,-43],[6,-112],[-86,-3],[-22,122],[51,97],[-2,39],[83,-7]],[[4744,12340],[62,-74],[-58,-89],[-75,20],[19,81],[52,62]],[[2033,5711],[-8,61],[39,103],[86,95],[9,111],[46,40],[4,46],[75,46],[22,65],[-25,79]],[[2639,6659],[116,-97],[121,37]],[[2876,6599],[99,32],[79,-45]],[[2546,6602],[93,57]],[[2696,6879],[-86,-23]],[[2610,6856],[-96,11],[17,-60],[-83,8]],[[2448,6815],[-52,45],[-33,70],[-42,12]],[[2321,6942],[-64,131],[12,129],[-115,65],[83,100],[57,19]],[[2294,7386],[40,32],[159,40],[23,-73],[92,40],[30,-26],[-34,-48],[-49,-131],[32,-28],[119,-34],[42,-53],[73,-36]],[[3973,8221],[-16,-143]],[[3957,8078],[-27,36],[-71,-27],[-39,117],[14,41],[139,-24]],[[3957,8078],[-81,-134],[9,-67],[-85,-127],[-64,-49]],[[3736,7701],[-69,36],[-56,-2],[-35,66],[5,49],[-67,85],[-83,31],[-125,-33],[-23,-80],[-74,34],[-91,-49]],[[3118,7838],[-60,-2],[-77,66],[-83,-20],[-59,26]],[[3491,8769],[40,-16],[223,-15],[64,32],[69,-29],[48,34],[128,-30],[62,-68],[0,-54],[33,-107],[-55,-94],[-84,-95],[-46,-106]],[[2302,7545],[18,-45],[-56,-98],[30,-16]],[[2321,6942],[-8,-156]],[[2313,6786],[-116,78],[-71,-35],[-54,-139],[-43,10],[-87,71],[-87,-87],[-26,47],[10,113],[-75,-29],[21,-86],[68,-129],[-89,-85],[-20,-74],[-18,-176],[-27,-79],[21,-63],[-55,-61],[-128,-6],[3,100],[48,40],[4,167],[83,219],[-49,36],[-9,150],[-24,21],[53,118],[86,150],[-62,73],[13,94],[61,117],[87,26],[66,-24],[47,20],[52,83]],[[1995,7454],[-86,-101],[-115,42],[-1,87],[54,68]],[[2019,6686],[24,-17],[15,-83],[-78,2],[-5,83],[-61,63],[26,28],[79,-76]],[[1327,6766],[-6,-44],[31,-122],[25,-22],[10,-89],[-77,-67],[-29,8],[-49,-60],[-42,46],[46,60],[-45,79],[-102,-81],[-6,74],[26,51],[2,80],[98,16],[70,68],[48,3]],[[1321,6984],[-35,-89],[-40,46],[75,43]],[[1596,7016],[15,-44],[-103,-193],[-59,-83],[-19,-85],[-46,4],[-34,40],[0,78],[61,86],[28,71],[157,126]],[[934,7459],[-51,-20],[-82,-89],[-36,68],[109,44],[60,-3]],[[1334,7576],[30,-6],[50,-66],[25,-70],[100,-4],[88,-75],[7,-37],[-61,-84],[-58,-35],[-99,14],[-37,-34],[-132,-5],[-48,-22],[-37,45],[16,43],[105,-17],[-11,60],[37,32],[18,67],[-66,64],[-41,-7],[-24,95],[63,31],[75,11]],[[1112,7626],[-35,-80],[-68,-48],[-1,71],[77,60],[27,-3]],[[3104,6642],[-33,100],[12,98]],[[3083,6840],[80,-21],[79,18],[69,-51]],[[2453,6721],[7,-76]],[[2309,6768],[26,4]],[[2335,6772],[60,-7],[58,-44]],[[2448,6815],[14,-58]],[[2462,6757],[-9,-36]],[[2335,6772],[-22,14]],[[2876,6599],[-4,87],[-47,43]],[[3030,6848],[53,-8]],[[3736,7701],[-37,-150],[-37,-62],[-116,-81],[-11,-34],[-70,9]],[[3465,7383],[1,22],[-126,11],[-37,-40]],[[3303,7376],[-67,41],[39,86],[-13,84],[-102,42],[-53,90],[25,57],[-14,62]],[[3465,7383],[-138,-17]],[[3327,7366],[-24,10]],[[2610,6856],[58,-45],[4,-51],[-80,-21]],[[2592,6739],[-57,26],[-73,-8]],[[2951,6997],[167,36],[73,35],[-70,50],[-10,33],[71,93]],[[3182,7244],[32,5],[198,110],[74,-11],[-8,-85],[28,-40],[76,-16],[49,-44],[-70,-66],[-78,-42],[-85,33],[-135,-110],[-16,-60],[-79,-11],[-93,-33],[-89,40],[-73,-13],[-34,33]],[[3327,7366],[-145,-122]],[[2592,6739],[66,-26],[-19,-54]],[[2442,3926],[77,-14],[58,-111],[106,-4],[-39,-62],[-66,-45],[-11,-33],[-89,-59],[-56,23],[-95,144],[16,20],[-7,118],[106,23]],[[3062,3428],[-22,-57],[6,-77]],[[3046,3294],[-67,-44],[-15,-38],[5,-101],[-155,-61],[-1,-59],[-56,-43]],[[2757,2948],[-10,-4]],[[2747,2944],[-80,-18],[-41,79],[50,104],[-65,119],[21,46],[-22,66],[-43,15],[-110,-27],[-46,-30],[-36,-87],[-57,36],[-27,-29],[-80,-2],[76,124],[85,38],[52,65],[55,40],[27,106],[123,126],[76,11]],[[2705,3726],[47,-37],[-63,-124],[36,-42],[-6,-66],[57,-17],[55,-52],[129,70],[21,-50],[81,20]],[[3031,3801],[-2,-81],[29,-23],[2,-64],[-47,-29],[49,-176]],[[2705,3726],[105,54],[46,37],[45,-38],[65,-3],[65,25]],[[3276,3528],[-12,-85],[34,-44],[-130,-17],[-51,-58]],[[3117,3324],[-71,-30]],[[3031,3801],[91,43]],[[3122,3844],[-18,-57],[42,-31],[-3,-42],[41,-90],[58,-4],[34,-92]],[[3384,3596],[-108,-68]],[[3122,3844],[36,-10],[132,-115],[15,18]],[[3265,3322],[-75,-27],[-73,29]],[[2867,2457],[-119,12],[-51,-46],[-26,19],[-55,-23],[-59,-64],[-149,-1],[-63,8]],[[2345,2362],[-78,23],[-5,45]],[[2262,2430],[30,39],[81,-4],[90,92],[35,-3],[76,56],[43,68],[34,86],[31,145],[65,35]],[[2757,2948],[56,-11],[-2,-44],[47,-79],[39,-33],[10,-54],[-20,-68],[-20,-202]],[[2345,2362],[47,-63],[-96,-80],[-51,-3],[13,-63],[32,-32],[8,-109]],[[2298,2012],[-28,-9],[-25,-78],[-44,-27],[-52,14],[-57,-57],[-72,27],[-17,97],[-83,19],[6,37],[63,21],[-20,102],[-110,12],[1,38],[70,48],[73,20],[9,70],[66,-37],[84,31],[3,29],[97,61]],[[2867,2457],[73,-102],[-42,-87],[-2,-83],[-39,-47],[-22,-66]],[[2835,2072],[-38,25],[-46,-44]],[[2751,2053],[-74,-48],[4,-26],[-5,-7]],[[2676,1972],[-19,-18],[-136,-9],[-39,21],[-18,67],[-55,-25],[-111,4]],[[2751,2053],[61,-84],[-28,-91]],[[2784,1878],[-48,-6],[-69,-63],[-30,15],[-65,-36],[-44,27],[-20,54],[41,44],[74,-18],[53,77]],[[2835,2072],[24,-38],[65,37],[52,-37]],[[2976,2034],[1,-86],[17,-38]],[[2994,1910],[-67,-5],[-18,-53],[25,-34],[-32,-41],[-38,8]],[[2864,1785],[-58,90],[-22,3]],[[3037,1760],[-81,-42]],[[2956,1718],[-4,-1],[-8,-5],[-52,10],[-28,63]],[[2994,1910],[59,-50],[7,-66],[-23,-34]],[[3142,1755],[43,-49],[68,-24]],[[3253,1682],[-3,-43],[-112,-28],[-141,22],[-41,85]],[[3037,1760],[105,-5]],[[3284,1797],[22,-49]],[[3306,1748],[-53,-66]],[[3142,1755],[16,45],[48,5]],[[3206,1805],[78,-8]],[[3071,2104],[42,-120],[44,-75]],[[3157,1909],[14,-60],[35,-44]],[[2976,2034],[95,70]],[[3286,1962],[21,-82]],[[3307,1880],[-23,-83]],[[3157,1909],[25,43],[-39,122]],[[3143,2074],[15,5]],[[3158,2079],[58,-81],[70,-36]],[[3258,2104],[16,-27]],[[3274,2077],[12,-115]],[[3158,2079],[100,25]],[[3388,1891],[-81,-11]],[[3274,2077],[49,-10],[49,-78],[-13,-53],[29,-45]],[[3580,1899],[-32,-61],[-71,-32]],[[3477,1806],[-56,79],[-33,6]],[[3258,2104],[77,77],[-35,91],[17,21]],[[3477,1806],[-54,-24],[-59,5],[-58,-39]],[[3143,2074],[-72,30]],[[1493,5361],[-29,-47],[37,-16],[75,50],[102,0],[36,-37],[34,-92],[27,-122],[-29,-32],[-23,-117],[-95,-113],[-21,29],[-89,-11],[-41,-40],[13,-44],[-16,-72],[-108,-92],[-88,85],[-60,16],[-66,-60],[-151,-26],[-30,42],[26,91],[-10,30],[-62,2],[-50,48],[-31,121],[-31,50],[-75,53],[-81,-97],[-23,2],[28,-128],[-49,-10],[-77,-79],[-92,-28],[-85,25],[-49,73],[-82,-8],[-32,19],[-14,85],[-52,23],[-26,51],[-37,8],[-67,86],[78,75],[23,44],[101,-14],[96,85],[-137,77],[50,68],[57,-37],[73,53],[61,-10],[-4,54],[69,93],[-2,72],[36,12],[-9,66],[39,54],[53,17],[77,-22],[62,4],[54,111],[60,22],[80,1],[20,24],[126,40],[34,31],[70,-8],[86,-49],[59,29],[55,-32],[23,-44],[-10,-122],[42,3],[-8,-81],[46,-25],[27,-62],[52,-63],[47,-5],[24,-91],[-43,-52],[-74,-36]],[[3030,630],[-5,-70],[-29,-35],[34,-50],[-7,-38],[-62,-32],[-29,-89],[-40,-42],[-65,16],[-25,50],[-62,55],[-59,-16],[-52,59]],[[2601,529],[-23,11]],[[2354,1098],[14,106],[87,-32],[57,4],[56,75],[4,143],[80,31],[240,18]],[[3395,859],[-97,-37],[-105,-14],[-68,-76],[-54,-5],[-41,-97]],[[4634,987],[8,-50],[-37,-11],[-14,24],[22,44],[21,-7]]],"transform":{"scale":[0.0015356137885054583,0.0008821232321270919],"translate":[-8.160966305447259,49.9605088687089]},"objects":{"pavementchannelauthorities":{"type":"GeometryCollection","geometries":[{"arcs":[[0,1,2]],"type":"Polygon","properties":{"CTYUA24CD":"E06000001","CTYUA24NM":"Hartlepool","CTYUA24NMW":" ","BNG_E":447161,"BNG_N":531473,"LONG":-1.27017,"LAT":54.67613,"GlobalID":"7ce4583d-dfbb-4e47-ba0e-343cd02f843f","local-authority-code":null},"id":1},{"arcs":[[3,4,5]],"type":"Polygon","properties":{"CTYUA24CD":"E06000002","CTYUA24NM":"Middlesbrough","CTYUA24NMW":" ","BNG_E":451141,"BNG_N":516887,"LONG":-1.211,"LAT":54.54468,"GlobalID":"63f9289e-8b42-4d9b-89c8-24f2e4ba5541","local-authority-code":null},"id":2},{"arcs":[[6,-4,7,8]],"type":"Polygon","properties":{"CTYUA24CD":"E06000003","CTYUA24NM":"Redcar and Cleveland","CTYUA24NMW":" ","BNG_E":464330,"BNG_N":519596,"LONG":-1.00657,"LAT":54.56752,"GlobalID":"4fd13074-cebe-45ba-850a-34f762a24711","local-authority-code":null},"id":3},{"arcs":[[9,-8,-6,10,11,12,-2]],"type":"Polygon","properties":{"CTYUA24CD":"E06000004","CTYUA24NM":"Stockton-on-Tees","CTYUA24NMW":" ","BNG_E":444940,"BNG_N":518179,"LONG":-1.30665,"LAT":54.55688,"GlobalID":"2f7bf82e-3f13-4922-bb20-fc8119367e16","local-authority-code":null},"id":4},{"arcs":[[-12,13,14]],"type":"Polygon","properties":{"CTYUA24CD":"E06000005","CTYUA24NM":"Darlington","CTYUA24NMW":" ","BNG_E":428029,"BNG_N":515648,"LONG":-1.56836,"LAT":54.53534,"GlobalID":"77e15732-8c4f-4997-b91a-eb6feb4fda0d","local-authority-code":null},"id":5},{"arcs":[[[15,16,17]],[[18,19,20,21,22]]],"type":"MultiPolygon","properties":{"CTYUA24CD":"E06000006","CTYUA24NM":"Halton","CTYUA24NMW":" ","BNG_E":354246,"BNG_N":382146,"LONG":-2.68854,"LAT":53.33425,"GlobalID":"94aa1944-2917-460a-9671-37179d39e13e","local-authority-code":null},"id":6},{"arcs":[[23,24,25,26,-18,27,-19,28,29]],"type":"Polygon","properties":{"CTYUA24CD":"E06000007","CTYUA24NM":"Warrington","CTYUA24NMW":" ","BNG_E":362744,"BNG_N":388457,"LONG":-2.56168,"LAT":53.39164,"GlobalID":"b1ffc190-c2a9-4bec-83ff-c5658a00d88b","local-authority-code":null},"id":7},{"arcs":[[30,31,32]],"type":"Polygon","properties":{"CTYUA24CD":"E06000008","CTYUA24NM":"Blackburn with Darwen","CTYUA24NMW":" ","BNG_E":369489,"BNG_N":422806,"LONG":-2.46362,"LAT":53.70081,"GlobalID":"f1835886-d615-4728-b5e6-838582af03b5","local-authority-code":null},"id":8},{"arcs":[[33,34]],"type":"Polygon","properties":{"CTYUA24CD":"E06000009","CTYUA24NM":"Blackpool","CTYUA24NMW":" ","BNG_E":332817,"BNG_N":436635,"LONG":-3.02203,"LAT":53.82164,"GlobalID":"8f375c5c-eed6-4788-ac36-4585b3c5b842","local-authority-code":null},"id":9},{"arcs":[[35,36]],"type":"Polygon","properties":{"CTYUA24CD":"E06000010","CTYUA24NM":"Kingston upon Hull, City of","CTYUA24NMW":" ","BNG_E":511892,"BNG_N":431651,"LONG":-0.30386,"LAT":53.76921,"GlobalID":"0df05a91-8177-4a33-a6e9-d3cf9e466c4e","local-authority-code":null},"id":10},{"arcs":[[37,-37,38,39,40,41,42,43]],"type":"Polygon","properties":{"CTYUA24CD":"E06000011","CTYUA24NM":"East Riding of Yorkshire","CTYUA24NMW":" ","BNG_E":488056,"BNG_N":443597,"LONG":-0.66196,"LAT":53.88112,"GlobalID":"cd15b745-71fb-40c3-b022-749d4a5bac54","local-authority-code":null},"id":11},{"arcs":[[44,45,46]],"type":"Polygon","properties":{"CTYUA24CD":"E06000012","CTYUA24NM":"North East Lincolnshire","CTYUA24NMW":" ","BNG_E":523465,"BNG_N":404564,"LONG":-0.13911,"LAT":53.52327,"GlobalID":"1263c679-678c-4d4e-a1af-70195cda04d7","local-authority-code":null},"id":12},{"arcs":[[-46,47,48,49,-40,50]],"type":"Polygon","properties":{"CTYUA24CD":"E06000013","CTYUA24NM":"North Lincolnshire","CTYUA24NMW":" ","BNG_E":497800,"BNG_N":410993,"LONG":-0.52408,"LAT":53.58643,"GlobalID":"ba9c939f-07b9-44aa-bab3-eefdc19b703f","local-authority-code":null},"id":13},{"arcs":[[-43,51]],"type":"Polygon","properties":{"CTYUA24CD":"E06000014","CTYUA24NM":"York","CTYUA24NMW":" ","BNG_E":460863,"BNG_N":452590,"LONG":-1.07377,"LAT":53.96583,"GlobalID":"cfac2f2d-aa48-4c59-b28a-5f5885418d33","local-authority-code":null},"id":14},{"arcs":[[52]],"type":"Polygon","properties":{"CTYUA24CD":"E06000015","CTYUA24NM":"Derby","CTYUA24NMW":" ","BNG_E":435611,"BNG_N":335375,"LONG":-1.47187,"LAT":52.91464,"GlobalID":"c7f3a50f-2886-4422-be80-54d1e4bbb97c","local-authority-code":null},"id":15},{"arcs":[[53]],"type":"Polygon","properties":{"CTYUA24CD":"E06000016","CTYUA24NM":"Leicester","CTYUA24NMW":" ","BNG_E":458946,"BNG_N":304594,"LONG":-1.13041,"LAT":52.63592,"GlobalID":"ed1d39a6-0304-4d8a-af5d-312ae4355874","local-authority-code":null},"id":16},{"arcs":[[54,55,56]],"type":"Polygon","properties":{"CTYUA24CD":"E06000017","CTYUA24NM":"Rutland","CTYUA24NMW":" ","BNG_E":492992,"BNG_N":308655,"LONG":-0.62631,"LAT":52.66766,"GlobalID":"bd74b661-6818-4970-a7a3-f4141afcf53b","local-authority-code":null},"id":17},{"arcs":[[57]],"type":"Polygon","properties":{"CTYUA24CD":"E06000018","CTYUA24NM":"Nottingham","CTYUA24NMW":" ","BNG_E":456082,"BNG_N":339970,"LONG":-1.16668,"LAT":52.9542,"GlobalID":"b1cb5523-137f-4b64-822d-75a6c4fbe77d","local-authority-code":null},"id":18},{"arcs":[[58,59,60,61,62]],"type":"Polygon","properties":{"CTYUA24CD":"E06000019","CTYUA24NM":"Herefordshire, County of","CTYUA24NMW":" ","BNG_E":349434,"BNG_N":242842,"LONG":-2.73931,"LAT":52.08162,"GlobalID":"4a91419c-6754-4dfa-93a5-0df92576e67c","local-authority-code":null},"id":19},{"arcs":[[63,64]],"type":"Polygon","properties":{"CTYUA24CD":"E06000020","CTYUA24NM":"Telford and Wrekin","CTYUA24NMW":" ","BNG_E":367035,"BNG_N":313057,"LONG":-2.48941,"LAT":52.71418,"GlobalID":"5c0cd1c4-bb51-4e35-8fa1-807a08a0276b","local-authority-code":null},"id":20},{"arcs":[[65]],"type":"Polygon","properties":{"CTYUA24CD":"E06000021","CTYUA24NM":"Stoke-on-Trent","CTYUA24NMW":" ","BNG_E":389438,"BNG_N":346650,"LONG":-2.15889,"LAT":53.01706,"GlobalID":"b9b9a9e8-b9cb-4556-8f30-7e46a4555570","local-authority-code":null},"id":21},{"arcs":[[66,67,68,69,70]],"type":"Polygon","properties":{"CTYUA24CD":"E06000022","CTYUA24NM":"Bath and North East Somerset","CTYUA24NMW":" ","BNG_E":366215,"BNG_N":161999,"LONG":-2.48657,"LAT":51.35605,"GlobalID":"f97e1c39-c755-4b86-aedd-b6abe970a3b1","local-authority-code":null},"id":22},{"arcs":[[71,-70,72,73]],"type":"Polygon","properties":{"CTYUA24CD":"E06000023","CTYUA24NM":"Bristol, City of","CTYUA24NMW":" ","BNG_E":359990,"BNG_N":174844,"LONG":-2.57742,"LAT":51.47114,"GlobalID":"b9f0ae05-8c88-41cb-8b9a-a72a2a1f8207","local-authority-code":null},"id":23},{"arcs":[[-73,-69,74,75]],"type":"Polygon","properties":{"CTYUA24CD":"E06000024","CTYUA24NM":"North Somerset","CTYUA24NMW":" ","BNG_E":347614,"BNG_N":166718,"LONG":-2.75438,"LAT":51.39706,"GlobalID":"39608173-589f-49d2-9c6a-57f03416db97","local-authority-code":null},"id":24},{"arcs":[[76,-71,-72,77,78]],"type":"Polygon","properties":{"CTYUA24CD":"E06000025","CTYUA24NM":"South Gloucestershire","CTYUA24NMW":" ","BNG_E":367556,"BNG_N":183197,"LONG":-2.46927,"LAT":51.54673,"GlobalID":"13dece8c-53e2-4e9d-8222-a6b06546f965","local-authority-code":null},"id":25},{"arcs":[[79,80]],"type":"Polygon","properties":{"CTYUA24CD":"E06000026","CTYUA24NM":"Plymouth","CTYUA24NMW":" ","BNG_E":249945,"BNG_N":58255,"LONG":-4.11298,"LAT":50.40495,"GlobalID":"1edf2079-6363-418e-b7b2-2614f1856354","local-authority-code":null},"id":26},{"arcs":[[81,82,83]],"type":"Polygon","properties":{"CTYUA24CD":"E06000030","CTYUA24NM":"Swindon","CTYUA24NMW":" ","BNG_E":418550,"BNG_N":186565,"LONG":-1.73369,"LAT":51.57765,"GlobalID":"84a29244-a0d2-4efd-9789-2626adad7bcc","local-authority-code":null},"id":28},{"arcs":[[84,85,86]],"type":"Polygon","properties":{"CTYUA24CD":"E06000031","CTYUA24NM":"Peterborough","CTYUA24NMW":" ","BNG_E":517372,"BNG_N":300777,"LONG":-0.26874,"LAT":52.59215,"GlobalID":"bf34c4d1-9e3e-42a7-b7d3-8810a8338354","local-authority-code":null},"id":29},{"arcs":[[87,88]],"type":"Polygon","properties":{"CTYUA24CD":"E06000032","CTYUA24NM":"Luton","CTYUA24NMW":" ","BNG_E":508606,"BNG_N":222559,"LONG":-0.4232,"LAT":51.89102,"GlobalID":"2ad933d9-6712-4f7d-85db-9d2d2a4f3670","local-authority-code":null},"id":30},{"arcs":[[89,90]],"type":"Polygon","properties":{"CTYUA24CD":"E06000033","CTYUA24NM":"Southend-on-Sea","CTYUA24NMW":" ","BNG_E":587777,"BNG_N":186837,"LONG":0.706923,"LAT":51.54918,"GlobalID":"b61d4422-9cec-451c-a770-f50c81234927","local-authority-code":null},"id":31},{"arcs":[[91,92,93]],"type":"Polygon","properties":{"CTYUA24CD":"E06000034","CTYUA24NM":"Thurrock","CTYUA24NMW":" ","BNG_E":562124,"BNG_N":181588,"LONG":0.334874,"LAT":51.50996,"GlobalID":"45d2a46d-2e6c-41ff-8558-2f97064812f9","local-authority-code":null},"id":32},{"arcs":[[94,95]],"type":"Polygon","properties":{"CTYUA24CD":"E06000035","CTYUA24NM":"Medway","CTYUA24NMW":" ","BNG_E":578207,"BNG_N":175198,"LONG":0.563174,"LAT":51.44773,"GlobalID":"8a73159a-5bbb-4bd9-a541-28a0e09a851a","local-authority-code":null},"id":33},{"arcs":[[96,97,98,99]],"type":"Polygon","properties":{"CTYUA24CD":"E06000036","CTYUA24NM":"Bracknell Forest","CTYUA24NMW":" ","BNG_E":488168,"BNG_N":168791,"LONG":-0.73365,"LAT":51.4113,"GlobalID":"9b9a8c40-5193-463f-ad48-0db771594720","local-authority-code":null},"id":34},{"arcs":[[100,101,102,103,104]],"type":"Polygon","properties":{"CTYUA24CD":"E06000037","CTYUA24NM":"West Berkshire","CTYUA24NMW":" ","BNG_E":450573,"BNG_N":172095,"LONG":-1.27367,"LAT":51.44559,"GlobalID":"f1cd3cfa-8343-4829-96fc-c04ec1147512","local-authority-code":null},"id":35},{"arcs":[[105,-101,106]],"type":"Polygon","properties":{"CTYUA24CD":"E06000038","CTYUA24NM":"Reading","CTYUA24NMW":" ","BNG_E":470223,"BNG_N":173153,"LONG":-0.99075,"LAT":51.45302,"GlobalID":"a5192c01-d485-415b-8059-4d7e66e536f8","local-authority-code":null},"id":36},{"arcs":[[107,108,109,110]],"type":"Polygon","properties":{"CTYUA24CD":"E06000039","CTYUA24NM":"Slough","CTYUA24NMW":" ","BNG_E":498920,"BNG_N":179246,"LONG":-0.57618,"LAT":51.5035,"GlobalID":"8a29bcd7-c7ab-4021-908f-7d99053b5c34","local-authority-code":null},"id":37},{"arcs":[[-110,111,-100,112,113]],"type":"Polygon","properties":{"CTYUA24CD":"E06000040","CTYUA24NM":"Windsor and Maidenhead","CTYUA24NMW":" ","BNG_E":492079,"BNG_N":176541,"LONG":-0.67541,"LAT":51.48034,"GlobalID":"932df08d-5b04-48e9-a38d-e7e6d05f55db","local-authority-code":null},"id":38},{"arcs":[[-113,-99,114,-102,-106,115,116]],"type":"Polygon","properties":{"CTYUA24CD":"E06000041","CTYUA24NM":"Wokingham","CTYUA24NMW":" ","BNG_E":476624,"BNG_N":169903,"LONG":-0.89936,"LAT":51.42297,"GlobalID":"181d233a-d0ce-4cd2-ac86-10f7b2b0ec9e","local-authority-code":null},"id":39},{"arcs":[[117,118,119,120,121]],"type":"Polygon","properties":{"CTYUA24CD":"E06000042","CTYUA24NM":"Milton Keynes","CTYUA24NMW":" ","BNG_E":486408,"BNG_N":242308,"LONG":-0.74071,"LAT":52.07242,"GlobalID":"8c37c008-29f2-4713-95ac-03af92ffa822","local-authority-code":null},"id":40},{"arcs":[[122,123,124]],"type":"Polygon","properties":{"CTYUA24CD":"E06000043","CTYUA24NM":"Brighton and Hove","CTYUA24NMW":" ","BNG_E":530278,"BNG_N":106850,"LONG":-0.15081,"LAT":50.84651,"GlobalID":"2e06445e-4baf-4e82-9a0e-431887f740aa","local-authority-code":null},"id":41},{"type":null,"properties":{"CTYUA24CD":"E06000044","CTYUA24NM":"Portsmouth","CTYUA24NMW":" ","BNG_E":465619,"BNG_N":101352,"LONG":-1.07006,"LAT":50.808,"GlobalID":"472b7812-b931-4afd-b223-23fb1d646d72","local-authority-code":null},"id":42},{"arcs":[[125,126]],"type":"Polygon","properties":{"CTYUA24CD":"E06000045","CTYUA24NM":"Southampton","CTYUA24NMW":" ","BNG_E":442303,"BNG_N":113700,"LONG":-1.39953,"LAT":50.92121,"GlobalID":"c7399c7f-e3ae-41c9-bb65-707f303a288e","local-authority-code":null},"id":43},{"arcs":[[127]],"type":"Polygon","properties":{"CTYUA24CD":"E06000046","CTYUA24NM":"Isle of Wight","CTYUA24NMW":" ","BNG_E":447183,"BNG_N":85949,"LONG":-1.33366,"LAT":50.67129,"GlobalID":"4ae7fad1-7f89-412d-b773-40937ed7c11a","local-authority-code":null},"id":44},{"arcs":[[128,129,-3,-13,-15,130,131,132,133]],"type":"Polygon","properties":{"CTYUA24CD":"E06000047","CTYUA24NM":"County Durham","CTYUA24NMW":" ","BNG_E":410383,"BNG_N":532242,"LONG":-1.84048,"LAT":54.68513,"GlobalID":"f16133d0-458d-4df8-ab69-b41e990f8d1e","local-authority-code":null},"id":45},{"arcs":[[134,135,136,137,138,139,-26,140]],"type":"Polygon","properties":{"CTYUA24CD":"E06000049","CTYUA24NM":"Cheshire East","CTYUA24NMW":" ","BNG_E":380510,"BNG_N":363462,"LONG":-2.293,"LAT":53.16793,"GlobalID":"6df44925-0b2f-4b37-a844-08aec9a77ea9","local-authority-code":null},"id":46},{"arcs":[[141,142,143,144,145,146,-16,-27,-140]],"type":"Polygon","properties":{"CTYUA24CD":"E06000050","CTYUA24NM":"Cheshire West and Chester","CTYUA24NMW":" ","BNG_E":353097,"BNG_N":363145,"LONG":-2.70298,"LAT":53.16336,"GlobalID":"f071ecea-80d9-4585-94b3-1159462de7f7","local-authority-code":null},"id":47},{"arcs":[[-64,147,148,-63,149,150,-142,-139,151]],"type":"Polygon","properties":{"CTYUA24CD":"E06000051","CTYUA24NM":"Shropshire","CTYUA24NMW":" ","BNG_E":350227,"BNG_N":302957,"LONG":-2.73667,"LAT":52.6221,"GlobalID":"67a6e52a-9b97-4a58-bb86-8060b5bb7db2","local-authority-code":null},"id":48},{"arcs":[[152,153]],"type":"Polygon","properties":{"CTYUA24CD":"E06000052","CTYUA24NM":"Cornwall","CTYUA24NMW":" ","BNG_E":212497,"BNG_N":64493,"LONG":-4.64255,"LAT":50.45023,"GlobalID":"85fa5e5a-df2d-4d14-b4ac-7940d2c520a1","local-authority-code":null},"id":49},{"type":null,"properties":{"CTYUA24CD":"E06000053","CTYUA24NM":"Isles of Scilly","CTYUA24NMW":" ","BNG_E":91327,"BNG_N":11447,"LONG":-6.30217,"LAT":49.92333,"GlobalID":"772145c4-a243-4a7f-acd1-8869e603b6ef","local-authority-code":null},"id":50},{"arcs":[[-83,154,-104,155,156,157,-67,-77,158]],"type":"Polygon","properties":{"CTYUA24CD":"E06000054","CTYUA24NM":"Wiltshire","CTYUA24NMW":" ","BNG_E":405213,"BNG_N":158862,"LONG":-1.92656,"LAT":51.32883,"GlobalID":"22a014eb-1c7b-4d5f-a68b-343dd30a3e2b","local-authority-code":null},"id":51},{"arcs":[[159,-122,160,161]],"type":"Polygon","properties":{"CTYUA24CD":"E06000055","CTYUA24NM":"Bedford","CTYUA24NMW":" ","BNG_E":505721,"BNG_N":256463,"LONG":-0.45464,"LAT":52.19629,"GlobalID":"4ee5a219-babe-42a8-8f1f-8ef5c954d105","local-authority-code":null},"id":52},{"arcs":[[162,163,-89,164,165,-118,-160]],"type":"Polygon","properties":{"CTYUA24CD":"E06000056","CTYUA24NM":"Central Bedfordshire","CTYUA24NMW":" ","BNG_E":504615,"BNG_N":234492,"LONG":-0.47754,"LAT":51.99904,"GlobalID":"eb404cf4-6054-4ce8-9b43-b8d489c03f29","local-authority-code":null},"id":53},{"arcs":[[166,167,168,-133,169,170,171,172]],"type":"Polygon","properties":{"CTYUA24CD":"E06000057","CTYUA24NM":"Northumberland","CTYUA24NMW":" ","BNG_E":395323,"BNG_N":600700,"LONG":-2.07522,"LAT":55.30038,"GlobalID":"f96bf336-653c-4afa-889d-40a5e35e28b1","local-authority-code":null},"id":54},{"arcs":[[173,174,175]],"type":"Polygon","properties":{"CTYUA24CD":"E06000058","CTYUA24NM":"Bournemouth, Christchurch and Poole","CTYUA24NMW":" ","BNG_E":410815,"BNG_N":94067,"LONG":-1.84807,"LAT":50.7461,"GlobalID":"6ed1eb35-9894-493d-a874-e96e5d697780","local-authority-code":null},"id":55},{"arcs":[[-157,176,-176,177,178,179]],"type":"Polygon","properties":{"CTYUA24CD":"E06000059","CTYUA24NM":"Dorset","CTYUA24NMW":" ","BNG_E":370877,"BNG_N":99796,"LONG":-2.41459,"LAT":50.79698,"GlobalID":"f0b57ff7-7a4c-4b30-ac08-f0e3dacb35f7","local-authority-code":null},"id":56},{"arcs":[[-119,-166,180,181,-111,-114,-117,182,183]],"type":"Polygon","properties":{"CTYUA24CD":"E06000060","CTYUA24NM":"Buckinghamshire","CTYUA24NMW":" ","BNG_E":482503,"BNG_N":208562,"LONG":-0.80574,"LAT":51.76967,"GlobalID":"a356b3b8-4922-4d52-bc17-2deb6638799b","local-authority-code":null},"id":57},{"arcs":[[184,-86,185,-161,-121,186,187,-55]],"type":"Polygon","properties":{"CTYUA24CD":"E06000061","CTYUA24NM":"North Northamptonshire","CTYUA24NMW":" ","BNG_E":493590,"BNG_N":281719,"LONG":-0.62505,"LAT":52.42547,"GlobalID":"dcdc9f40-6708-4edc-8e26-944c496d4ce9","local-authority-code":null},"id":58},{"arcs":[[-187,-120,-184,188,189,190]],"type":"Polygon","properties":{"CTYUA24CD":"E06000062","CTYUA24NM":"West Northamptonshire","CTYUA24NMW":" ","BNG_E":467187,"BNG_N":263879,"LONG":-1.01683,"LAT":52.26899,"GlobalID":"41c15cd5-a1f3-49ee-a502-37a8f1bcab79","local-authority-code":null},"id":59},{"arcs":[[191,192,193,194,-171]],"type":"Polygon","properties":{"CTYUA24CD":"E06000063","CTYUA24NM":"Cumberland","CTYUA24NMW":" ","BNG_E":315764,"BNG_N":533086,"LONG":-3.30816,"LAT":54.68576,"GlobalID":"9175c915-dfa3-49b5-9072-b20b362c5e37","local-authority-code":null},"id":60},{"arcs":[[-132,195,196,197,-192,-170]],"type":"Polygon","properties":{"CTYUA24CD":"E06000064","CTYUA24NM":"Westmorland and Furness","CTYUA24NMW":" ","BNG_E":353889,"BNG_N":510941,"LONG":-2.71337,"LAT":54.4917,"GlobalID":"a99403ef-df40-4732-bcb5-3f8d789bed34","local-authority-code":null},"id":61},{"arcs":[[-44,-52,-42,198,199,200,201,202,-196,-131,-14,-11,-5,-7,203]],"type":"Polygon","properties":{"CTYUA24CD":"E06000065","CTYUA24NM":"North Yorkshire","CTYUA24NMW":" ","BNG_E":429508,"BNG_N":466514,"LONG":-1.55034,"LAT":54.0937,"GlobalID":"290c0d6a-2511-49d5-94c7-73c93f0284ea","local-authority-code":null},"id":62},{"arcs":[[-75,-68,-158,-180,204,205]],"type":"Polygon","properties":{"CTYUA24CD":"E06000066","CTYUA24NM":"Somerset","CTYUA24NMW":" ","BNG_E":309294,"BNG_N":131078,"LONG":-3.29604,"LAT":51.07183,"GlobalID":"090b6ea2-2de5-4b95-8511-f099d98a2ed7","local-authority-code":null},"id":63},{"arcs":[[206,207,208,209,-32]],"type":"Polygon","properties":{"CTYUA24CD":"E08000001","CTYUA24NM":"Bolton","CTYUA24NMW":" ","BNG_E":368352,"BNG_N":409874,"LONG":-2.47952,"LAT":53.58451,"GlobalID":"5e0c43b5-1949-4dd6-8063-2cb2fe08215d","local-authority-code":null},"id":64},{"arcs":[[210,211,212,-207,-31,213]],"type":"Polygon","properties":{"CTYUA24CD":"E08000002","CTYUA24NM":"Bury","CTYUA24NMW":" ","BNG_E":379658,"BNG_N":410767,"LONG":-2.3088,"LAT":53.5931,"GlobalID":"8f53e46d-346b-4d05-a354-896e121fa5d0","local-authority-code":null},"id":65},{"arcs":[[214,215,216,217,-135,218,219,-212]],"type":"Polygon","properties":{"CTYUA24CD":"E08000003","CTYUA24NM":"Manchester","CTYUA24NMW":" ","BNG_E":384591,"BNG_N":397063,"LONG":-2.2336,"LAT":53.47009,"GlobalID":"2df714c1-918f-4b4e-82fe-c190553343e3","local-authority-code":null},"id":66},{"arcs":[[220,221,222,-216,223,224]],"type":"Polygon","properties":{"CTYUA24CD":"E08000004","CTYUA24NM":"Oldham","CTYUA24NMW":" ","BNG_E":396603,"BNG_N":406784,"LONG":-2.05275,"LAT":53.55768,"GlobalID":"dd9d6393-3eec-4af8-92dd-255daf4165af","local-authority-code":null},"id":67},{"arcs":[[-224,-215,-211,225,226]],"type":"Polygon","properties":{"CTYUA24CD":"E08000005","CTYUA24NM":"Rochdale","CTYUA24NMW":" ","BNG_E":390315,"BNG_N":412326,"LONG":-2.14784,"LAT":53.60742,"GlobalID":"16ed481f-4338-4764-aeef-8b25974c6a44","local-authority-code":null},"id":68},{"arcs":[[-213,-220,227,-24,228,-208]],"type":"Polygon","properties":{"CTYUA24CD":"E08000006","CTYUA24NM":"Salford","CTYUA24NMW":" ","BNG_E":374556,"BNG_N":398128,"LONG":-2.38485,"LAT":53.47927,"GlobalID":"66d8ee42-1463-44cb-a990-79d854ae1532","local-authority-code":null},"id":69},{"arcs":[[229,-136,-218,230]],"type":"Polygon","properties":{"CTYUA24CD":"E08000007","CTYUA24NM":"Stockport","CTYUA24NMW":" ","BNG_E":391807,"BNG_N":388258,"LONG":-2.12466,"LAT":53.39111,"GlobalID":"fa547013-e104-435e-8694-982e5b712ddd","local-authority-code":null},"id":70},{"arcs":[[231,-231,-217,-223]],"type":"Polygon","properties":{"CTYUA24CD":"E08000008","CTYUA24NM":"Tameside","CTYUA24NMW":" ","BNG_E":394987,"BNG_N":397995,"LONG":-2.077,"LAT":53.47867,"GlobalID":"14a8f755-c0c1-4ba8-af22-b784de526b3d","local-authority-code":null},"id":71},{"arcs":[[-219,-141,-25,-228]],"type":"Polygon","properties":{"CTYUA24CD":"E08000009","CTYUA24NM":"Trafford","CTYUA24NMW":" ","BNG_E":375790,"BNG_N":391163,"LONG":-2.36572,"LAT":53.41673,"GlobalID":"c71f7547-03b6-42d2-999b-52d2e37fb650","local-authority-code":null},"id":72},{"arcs":[[-209,-229,-30,232,233]],"type":"Polygon","properties":{"CTYUA24CD":"E08000010","CTYUA24NM":"Wigan","CTYUA24NMW":" ","BNG_E":362139,"BNG_N":402126,"LONG":-2.57242,"LAT":53.51445,"GlobalID":"2fc14736-cfd7-4476-981f-96fa188f2b42","local-authority-code":null},"id":73},{"arcs":[[234,-22,235,236,237]],"type":"Polygon","properties":{"CTYUA24CD":"E08000011","CTYUA24NM":"Knowsley","CTYUA24NMW":" ","BNG_E":344762,"BNG_N":393778,"LONG":-2.83298,"LAT":53.43789,"GlobalID":"387c4ef3-6ea7-4f70-aa87-3d34b647b813","local-authority-code":null},"id":74},{"arcs":[[-21,238,239,-236]],"type":"Polygon","properties":{"CTYUA24CD":"E08000012","CTYUA24NM":"Liverpool","CTYUA24NMW":" ","BNG_E":339359,"BNG_N":390556,"LONG":-2.91368,"LAT":53.40833,"GlobalID":"9aebf2a1-75c7-4bdf-b2bc-3bfb3c72455a","local-authority-code":null},"id":75},{"arcs":[[-233,-29,-23,-235,240]],"type":"Polygon","properties":{"CTYUA24CD":"E08000013","CTYUA24NM":"St. Helens","CTYUA24NMW":" ","BNG_E":353413,"BNG_N":395992,"LONG":-2.70309,"LAT":53.45862,"GlobalID":"936698df-f1d2-486b-bf8a-856f33013087","local-authority-code":null},"id":76},{"arcs":[[241,-237,-240,242]],"type":"Polygon","properties":{"CTYUA24CD":"E08000014","CTYUA24NM":"Sefton","CTYUA24NMW":" ","BNG_E":334282,"BNG_N":398835,"LONG":-2.99177,"LAT":53.48213,"GlobalID":"511934b4-aaa0-480f-8334-ab07341e5e3d","local-authority-code":null},"id":77},{"arcs":[[-146,243]],"type":"Polygon","properties":{"CTYUA24CD":"E08000015","CTYUA24NM":"Wirral","CTYUA24NMW":" ","BNG_E":329109,"BNG_N":386965,"LONG":-3.06703,"LAT":53.37478,"GlobalID":"b2ca62ed-121b-4def-98e8-00c27b9f0c8a","local-authority-code":null},"id":78},{"arcs":[[244,245,246,247,248,249]],"type":"Polygon","properties":{"CTYUA24CD":"E08000016","CTYUA24NM":"Barnsley","CTYUA24NMW":" ","BNG_E":429979,"BNG_N":403327,"LONG":-1.54926,"LAT":53.52577,"GlobalID":"f8c22878-b7ba-4a5c-97a7-0baa0656dbe4","local-authority-code":null},"id":79},{"arcs":[[-50,250,251,-245,252,-199,-41]],"type":"Polygon","properties":{"CTYUA24CD":"E08000017","CTYUA24NM":"Doncaster","CTYUA24NMW":" ","BNG_E":459167,"BNG_N":403733,"LONG":-1.10895,"LAT":53.52696,"GlobalID":"0b4e220c-7e2e-4da9-b29d-ac3bc4dfa7b9","local-authority-code":null},"id":80},{"arcs":[[-252,253,254,255,-246]],"type":"Polygon","properties":{"CTYUA24CD":"E08000018","CTYUA24NM":"Rotherham","CTYUA24NMW":" ","BNG_E":447542,"BNG_N":388980,"LONG":-1.28651,"LAT":53.39554,"GlobalID":"4b72d80c-2280-495f-8028-56c0431bde30","local-authority-code":null},"id":81},{"arcs":[[-256,256,-247]],"type":"Polygon","properties":{"CTYUA24CD":"E08000019","CTYUA24NM":"Sheffield","CTYUA24NMW":" ","BNG_E":430511,"BNG_N":389736,"LONG":-1.54255,"LAT":53.40359,"GlobalID":"80dcf5e9-8735-46cd-9e29-fd10f05010c0","local-authority-code":null},"id":82},{"arcs":[[257,258,259,-168]],"type":"Polygon","properties":{"CTYUA24CD":"E08000021","CTYUA24NM":"Newcastle upon Tyne","CTYUA24NMW":" ","BNG_E":422287,"BNG_N":569661,"LONG":-1.65297,"LAT":55.021,"GlobalID":"6624358b-1e39-44d7-8558-49707ccd8405","local-authority-code":null},"id":83},{"arcs":[[260,-258,-167,261]],"type":"Polygon","properties":{"CTYUA24CD":"E08000022","CTYUA24NM":"North Tyneside","CTYUA24NMW":" ","BNG_E":431485,"BNG_N":570602,"LONG":-1.50901,"LAT":55.02896,"GlobalID":"5069839b-35e9-42f3-b096-2efa498fee3c","local-authority-code":null},"id":84},{"arcs":[[262,263,-259,-261,264]],"type":"Polygon","properties":{"CTYUA24CD":"E08000023","CTYUA24NM":"South Tyneside","CTYUA24NMW":" ","BNG_E":435505,"BNG_N":564057,"LONG":-1.44694,"LAT":54.96988,"GlobalID":"9f08c654-57b6-47c0-a5c1-9d6221df70bb","local-authority-code":null},"id":85},{"arcs":[[-129,265,-263,266]],"type":"Polygon","properties":{"CTYUA24CD":"E08000024","CTYUA24NM":"Sunderland","CTYUA24NMW":" ","BNG_E":436455,"BNG_N":551514,"LONG":-1.43368,"LAT":54.85711,"GlobalID":"08f5b7e2-973b-49c4-b99d-e1cfabb0e23c","local-authority-code":null},"id":86},{"arcs":[[267,268,269,270,271,272,273]],"type":"Polygon","properties":{"CTYUA24CD":"E08000025","CTYUA24NM":"Birmingham","CTYUA24NMW":" ","BNG_E":408150,"BNG_N":287352,"LONG":-1.88141,"LAT":52.48404,"GlobalID":"e3db4003-a151-4355-9553-b57e43e1b0d3","local-authority-code":null},"id":87},{"arcs":[[274,275]],"type":"Polygon","properties":{"CTYUA24CD":"E08000026","CTYUA24NM":"Coventry","CTYUA24NMW":" ","BNG_E":432809,"BNG_N":279689,"LONG":-1.51905,"LAT":52.41424,"GlobalID":"51631578-01c6-404c-a05e-875188fa12c5","local-authority-code":null},"id":88},{"arcs":[[276,-271,277,278,279]],"type":"Polygon","properties":{"CTYUA24CD":"E08000027","CTYUA24NM":"Dudley","CTYUA24NMW":" ","BNG_E":393191,"BNG_N":288584,"LONG":-2.10171,"LAT":52.49514,"GlobalID":"f150e67b-821b-4eee-a4ce-c73c35dce362","local-authority-code":null},"id":89},{"arcs":[[-272,-277,280,281]],"type":"Polygon","properties":{"CTYUA24CD":"E08000028","CTYUA24NM":"Sandwell","CTYUA24NMW":" ","BNG_E":399573,"BNG_N":290764,"LONG":-2.00772,"LAT":52.51478,"GlobalID":"faa07bb4-c814-4e90-b7a7-6b354e05dcda","local-authority-code":null},"id":90},{"arcs":[[-275,282,283,-269,284]],"type":"Polygon","properties":{"CTYUA24CD":"E08000029","CTYUA24NM":"Solihull","CTYUA24NMW":" ","BNG_E":419434,"BNG_N":281483,"LONG":-1.71559,"LAT":52.431,"GlobalID":"1607f591-3875-41ed-bfdf-3dbf19e0ed75","local-authority-code":null},"id":91},{"arcs":[[-273,-282,285,286]],"type":"Polygon","properties":{"CTYUA24CD":"E08000030","CTYUA24NM":"Walsall","CTYUA24NMW":" ","BNG_E":402099,"BNG_N":300807,"LONG":-1.97043,"LAT":52.60506,"GlobalID":"cc51d54b-415f-4787-9fab-874a80c0cbc2","local-authority-code":null},"id":92},{"arcs":[[-286,-281,-280,287]],"type":"Polygon","properties":{"CTYUA24CD":"E08000031","CTYUA24NM":"Wolverhampton","CTYUA24NMW":" ","BNG_E":391463,"BNG_N":300016,"LONG":-2.12746,"LAT":52.59788,"GlobalID":"aba94ad1-9e5a-4c43-8f02-66d4bf95e74e","local-authority-code":null},"id":93},{"arcs":[[288,289,290,291,-202]],"type":"Polygon","properties":{"CTYUA24CD":"E08000032","CTYUA24NM":"Bradford","CTYUA24NMW":" ","BNG_E":408395,"BNG_N":438626,"LONG":-1.8739,"LAT":53.84383,"GlobalID":"aed28562-3280-4dd6-88a7-63a910d0086b","local-authority-code":null},"id":94},{"arcs":[[292,-225,-227,293,-291]],"type":"Polygon","properties":{"CTYUA24CD":"E08000033","CTYUA24NM":"Calderdale","CTYUA24NMW":" ","BNG_E":402618,"BNG_N":424895,"LONG":-1.96181,"LAT":53.72047,"GlobalID":"a155dde1-35fa-4645-a37e-304dc5da3656","local-authority-code":null},"id":95},{"arcs":[[294,295,-249,296,-221,-293,-290]],"type":"Polygon","properties":{"CTYUA24CD":"E08000034","CTYUA24NM":"Kirklees","CTYUA24NMW":" ","BNG_E":414586,"BNG_N":416223,"LONG":-1.78085,"LAT":53.64233,"GlobalID":"1127c0af-758a-4507-8a0f-c5ca04febb3c","local-authority-code":null},"id":96},{"arcs":[[297,-295,-289,-201]],"type":"Polygon","properties":{"CTYUA24CD":"E08000035","CTYUA24NM":"Leeds","CTYUA24NMW":" ","BNG_E":432528,"BNG_N":436384,"LONG":-1.50736,"LAT":53.82273,"GlobalID":"17822324-04b9-447c-ab05-7d5cb01ba7d3","local-authority-code":null},"id":97},{"arcs":[[-253,-250,-296,-298,-200]],"type":"Polygon","properties":{"CTYUA24CD":"E08000036","CTYUA24NM":"Wakefield","CTYUA24NMW":" ","BNG_E":438367,"BNG_N":418231,"LONG":-1.42091,"LAT":53.65918,"GlobalID":"fa463e14-53c6-4196-b1a8-bb1309d4c9cf","local-authority-code":null},"id":98},{"arcs":[[-260,-264,-266,-134,-169]],"type":"Polygon","properties":{"CTYUA24CD":"E08000037","CTYUA24NM":"Gateshead","CTYUA24NMW":" ","BNG_E":420158,"BNG_N":559652,"LONG":-1.68696,"LAT":54.93115,"GlobalID":"1afdcdaa-0440-4728-89f9-e35c6277737b","local-authority-code":null},"id":99},{"arcs":[[298,299,300,301,302,303,304]],"type":"Polygon","properties":{"CTYUA24CD":"E09000001","CTYUA24NM":"City of London","CTYUA24NMW":" ","BNG_E":532382,"BNG_N":181358,"LONG":-0.09352,"LAT":51.51564,"GlobalID":"1889d764-553c-42fa-ad6f-9e7b862f96bf","local-authority-code":null},"id":100},{"arcs":[[305,306,307,308]],"type":"Polygon","properties":{"CTYUA24CD":"E09000002","CTYUA24NM":"Barking and Dagenham","CTYUA24NMW":" ","BNG_E":547757,"BNG_N":185111,"LONG":0.129479,"LAT":51.54556,"GlobalID":"2e913d50-65ae-4046-bb74-6aebb9a805bb","local-authority-code":null},"id":101},{"arcs":[[309,310,311,312,313,314]],"type":"Polygon","properties":{"CTYUA24CD":"E09000003","CTYUA24NM":"Barnet","CTYUA24NMW":" ","BNG_E":523473,"BNG_N":191752,"LONG":-0.2182,"LAT":51.61107,"GlobalID":"d931e114-bbbf-4adc-a5c8-a35c7f076226","local-authority-code":null},"id":102},{"arcs":[[315,316,317,318]],"type":"Polygon","properties":{"CTYUA24CD":"E09000004","CTYUA24NM":"Bexley","CTYUA24NMW":" ","BNG_E":549202,"BNG_N":175434,"LONG":0.146212,"LAT":51.45823,"GlobalID":"3dbd3854-c215-4b4b-b444-0a289d805bf8","local-authority-code":null},"id":103},{"arcs":[[319,320,321,322,323,324,-313]],"type":"Polygon","properties":{"CTYUA24CD":"E09000005","CTYUA24NM":"Brent","CTYUA24NMW":" ","BNG_E":519615,"BNG_N":186465,"LONG":-0.27569,"LAT":51.56439,"GlobalID":"a393244b-40b8-40d0-a5ca-43f2f3db2e68","local-authority-code":null},"id":104},{"arcs":[[-317,325,326,327,328,329,330,331]],"type":"Polygon","properties":{"CTYUA24CD":"E09000006","CTYUA24NM":"Bromley","CTYUA24NMW":" ","BNG_E":542036,"BNG_N":165707,"LONG":0.039246,"LAT":51.37266,"GlobalID":"130304b1-4c11-4167-95e9-945866d0350a","local-authority-code":null},"id":105},{"arcs":[[332,-302,333,-320,-312,334]],"type":"Polygon","properties":{"CTYUA24CD":"E09000007","CTYUA24NM":"Camden","CTYUA24NMW":" ","BNG_E":527491,"BNG_N":184283,"LONG":-0.16291,"LAT":51.54305,"GlobalID":"f5c80dd2-e80d-416f-942e-6342801d689f","local-authority-code":null},"id":106},{"arcs":[[-328,335,336,337,338]],"type":"Polygon","properties":{"CTYUA24CD":"E09000008","CTYUA24NM":"Croydon","CTYUA24NMW":" ","BNG_E":533922,"BNG_N":164745,"LONG":-0.07762,"LAT":51.36599,"GlobalID":"aa366af8-117f-4135-9591-1ec59f5efe53","local-authority-code":null},"id":107},{"arcs":[[339,340,341,342,-324]],"type":"Polygon","properties":{"CTYUA24CD":"E09000009","CTYUA24NM":"Ealing","CTYUA24NMW":" ","BNG_E":517055,"BNG_N":181959,"LONG":-0.3141,"LAT":51.52443,"GlobalID":"d5230aea-60dc-4db4-8fd9-1ff2be22226b","local-authority-code":null},"id":108},{"arcs":[[343,344,345,-310,346]],"type":"Polygon","properties":{"CTYUA24CD":"E09000010","CTYUA24NM":"Enfield","CTYUA24NMW":" ","BNG_E":532831,"BNG_N":196198,"LONG":-0.08144,"LAT":51.6489,"GlobalID":"b262b711-6498-4e57-a506-8c0ba9693cd8","local-authority-code":null},"id":109},{"arcs":[[-318,-332,347,348]],"type":"Polygon","properties":{"CTYUA24CD":"E09000011","CTYUA24NM":"Greenwich","CTYUA24NMW":" ","BNG_E":542507,"BNG_N":175878,"LONG":0.050093,"LAT":51.46394,"GlobalID":"6e3e5d63-f68e-4839-a4a0-952cec538b86","local-authority-code":null},"id":110},{"arcs":[[349,350,-304,351,352,353]],"type":"Polygon","properties":{"CTYUA24CD":"E09000012","CTYUA24NM":"Hackney","CTYUA24NMW":" ","BNG_E":534560,"BNG_N":185787,"LONG":-0.06046,"LAT":51.55493,"GlobalID":"aa61a277-a7b8-4cb8-aa17-2237bc0edc95","local-authority-code":null},"id":111},{"arcs":[[354,355,356,357,-340,-323]],"type":"Polygon","properties":{"CTYUA24CD":"E09000013","CTYUA24NM":"Hammersmith and Fulham","CTYUA24NMW":" ","BNG_E":523867,"BNG_N":177993,"LONG":-0.21735,"LAT":51.48733,"GlobalID":"b192d744-7882-400e-bc1f-2a16078ec18d","local-authority-code":null},"id":112},{"arcs":[[358,-353,359,-335,-311,-346]],"type":"Polygon","properties":{"CTYUA24CD":"E09000014","CTYUA24NM":"Haringey","CTYUA24NMW":" ","BNG_E":531260,"BNG_N":189349,"LONG":-0.1067,"LAT":51.58772,"GlobalID":"ffce2f1d-f246-4905-8eff-254579cc9eb6","local-authority-code":null},"id":113},{"arcs":[[-314,-325,-343,360,361]],"type":"Polygon","properties":{"CTYUA24CD":"E09000015","CTYUA24NM":"Harrow","CTYUA24NMW":" ","BNG_E":515359,"BNG_N":189736,"LONG":-0.33599,"LAT":51.59467,"GlobalID":"3c359c5b-4d32-4ad7-b22e-24e0553deca2","local-authority-code":null},"id":114},{"arcs":[[-93,362,-309,363,364]],"type":"Polygon","properties":{"CTYUA24CD":"E09000016","CTYUA24NM":"Havering","CTYUA24NMW":" ","BNG_E":555032,"BNG_N":187514,"LONG":0.235368,"LAT":51.5652,"GlobalID":"762f3e01-ba5f-40c8-8ea1-1c21098c5c72","local-authority-code":null},"id":115},{"arcs":[[-361,-342,365,366,-108,-182,367]],"type":"Polygon","properties":{"CTYUA24CD":"E09000017","CTYUA24NM":"Hillingdon","CTYUA24NMW":" ","BNG_E":508168,"BNG_N":183121,"LONG":-0.44179,"LAT":51.53664,"GlobalID":"fd5ae5ab-9f21-4416-95ca-53cb0136217e","local-authority-code":null},"id":116},{"arcs":[[-358,368,369,-366,-341]],"type":"Polygon","properties":{"CTYUA24CD":"E09000018","CTYUA24NM":"Hounslow","CTYUA24NMW":" ","BNG_E":512737,"BNG_N":174959,"LONG":-0.37855,"LAT":51.46239,"GlobalID":"cef15c7c-ed6b-4249-9cb9-22dc051b361c","local-authority-code":null},"id":117},{"arcs":[[-352,-303,-333,-360]],"type":"Polygon","properties":{"CTYUA24CD":"E09000019","CTYUA24NM":"Islington","CTYUA24NMW":" ","BNG_E":531160,"BNG_N":184645,"LONG":-0.1099,"LAT":51.54547,"GlobalID":"2af568f5-b26d-439b-81da-521f8d18f775","local-authority-code":null},"id":118},{"arcs":[[370,371,-355,-322]],"type":"Polygon","properties":{"CTYUA24CD":"E09000020","CTYUA24NM":"Kensington and Chelsea","CTYUA24NMW":" ","BNG_E":525756,"BNG_N":179054,"LONG":-0.18978,"LAT":51.49645,"GlobalID":"9bfcf6f8-b423-4f26-8118-e4e40c95a56a","local-authority-code":null},"id":119},{"arcs":[[372,373,374,375,376]],"type":"Polygon","properties":{"CTYUA24CD":"E09000021","CTYUA24NM":"Kingston upon Thames","CTYUA24NMW":" ","BNG_E":519508,"BNG_N":167389,"LONG":-0.28368,"LAT":51.39296,"GlobalID":"ccaa9b1a-1296-4ebc-8c69-3f27c3f4e176","local-authority-code":null},"id":120},{"arcs":[[-329,-339,377,378,379,-300,380]],"type":"Polygon","properties":{"CTYUA24CD":"E09000022","CTYUA24NM":"Lambeth","CTYUA24NMW":" ","BNG_E":531118,"BNG_N":175629,"LONG":-0.11385,"LAT":51.46445,"GlobalID":"8fe29aa6-6888-4406-9dc0-816865068742","local-authority-code":null},"id":121},{"arcs":[[381,-348,-331,382,383]],"type":"Polygon","properties":{"CTYUA24CD":"E09000023","CTYUA24NM":"Lewisham","CTYUA24NMW":" ","BNG_E":537888,"BNG_N":173343,"LONG":-0.01734,"LAT":51.4423,"GlobalID":"70b1d33f-813a-4165-af67-56c9629d7673","local-authority-code":null},"id":122},{"arcs":[[-378,-338,384,-373,385]],"type":"Polygon","properties":{"CTYUA24CD":"E09000024","CTYUA24NM":"Merton","CTYUA24NMW":" ","BNG_E":526068,"BNG_N":169508,"LONG":-0.18869,"LAT":51.41059,"GlobalID":"e3fe3830-0609-478d-a56d-ec4642dbf2b6","local-authority-code":null},"id":123},{"arcs":[[-307,386,387,-350,388,389]],"type":"Polygon","properties":{"CTYUA24CD":"E09000025","CTYUA24NM":"Newham","CTYUA24NMW":" ","BNG_E":540713,"BNG_N":183346,"LONG":0.027261,"LAT":51.5315,"GlobalID":"bd4d5925-8ae3-4351-b5e9-aa1965465a7f","local-authority-code":null},"id":124},{"arcs":[[-364,-308,-390,390,391]],"type":"Polygon","properties":{"CTYUA24CD":"E09000026","CTYUA24NM":"Redbridge","CTYUA24NMW":" ","BNG_E":543512,"BNG_N":189477,"LONG":0.070085,"LAT":51.58588,"GlobalID":"eaf2380d-127c-44dc-b2e5-606e28ff68ca","local-authority-code":null},"id":125},{"arcs":[[392,-376,393,-369,-357]],"type":"Polygon","properties":{"CTYUA24CD":"E09000027","CTYUA24NM":"Richmond upon Thames","CTYUA24NMW":" ","BNG_E":519005,"BNG_N":172650,"LONG":-0.28914,"LAT":51.44035,"GlobalID":"e458d68e-0135-4ecb-a056-3ae1e815d3e8","local-authority-code":null},"id":126},{"arcs":[[394,395,-383,-330,-381,-299]],"type":"Polygon","properties":{"CTYUA24CD":"E09000028","CTYUA24NM":"Southwark","CTYUA24NMW":" ","BNG_E":533945,"BNG_N":175869,"LONG":-0.07309,"LAT":51.46595,"GlobalID":"50655abd-be82-41d7-bee6-dce06085c3e1","local-authority-code":null},"id":127},{"arcs":[[-337,396,-374,-385]],"type":"Polygon","properties":{"CTYUA24CD":"E09000029","CTYUA24NM":"Sutton","CTYUA24NMW":" ","BNG_E":527357,"BNG_N":163639,"LONG":-0.17227,"LAT":51.35755,"GlobalID":"a064c438-951c-4f67-a69c-f6ad71a83e67","local-authority-code":null},"id":128},{"arcs":[[397,-395,-305,-351,-388]],"type":"Polygon","properties":{"CTYUA24CD":"E09000030","CTYUA24NM":"Tower Hamlets","CTYUA24NMW":" ","BNG_E":536340,"BNG_N":181452,"LONG":-0.03648,"LAT":51.51555,"GlobalID":"e0332663-680b-46e3-bfd2-d7b99e9578e1","local-authority-code":null},"id":129},{"arcs":[[-391,-389,-354,-359,-345,398]],"type":"Polygon","properties":{"CTYUA24CD":"E09000031","CTYUA24NM":"Waltham Forest","CTYUA24NMW":" ","BNG_E":537328,"BNG_N":190278,"LONG":-0.0188,"LAT":51.59462,"GlobalID":"61d60aec-0631-4ed3-89fe-4372e711ff51","local-authority-code":null},"id":130},{"arcs":[[-386,-377,-393,-356,-372,399,-379]],"type":"Polygon","properties":{"CTYUA24CD":"E09000032","CTYUA24NM":"Wandsworth","CTYUA24NMW":" ","BNG_E":525152,"BNG_N":174138,"LONG":-0.20022,"LAT":51.4524,"GlobalID":"8d7c75d8-c772-4a89-87f2-7beef8fd8ca4","local-authority-code":null},"id":131},{"arcs":[[-301,-380,-400,-371,-321,-334]],"type":"Polygon","properties":{"CTYUA24CD":"E09000033","CTYUA24NM":"Westminster","CTYUA24NMW":" ","BNG_E":528268,"BNG_N":180871,"LONG":-0.15295,"LAT":51.51222,"GlobalID":"322d68ee-7fbb-4430-96f8-fb9459795b2e","local-authority-code":null},"id":132},{"arcs":[[400,401,402,403,-163,-162,-186,-85,404]],"type":"Polygon","properties":{"CTYUA24CD":"E10000003","CTYUA24NM":"Cambridgeshire","CTYUA24NMW":" ","BNG_E":520313,"BNG_N":273863,"LONG":-0.23505,"LAT":52.34966,"GlobalID":"e7c1d3db-ae42-406c-97e6-6fde48165f19","local-authority-code":null},"id":133},{"arcs":[[-248,-257,-255,405,406,407,-137,-230,-232,-222,-297],[-53]],"type":"Polygon","properties":{"CTYUA24CD":"E10000007","CTYUA24NM":"Derbyshire","CTYUA24NMW":" ","BNG_E":426751,"BNG_N":353559,"LONG":-1.60212,"LAT":53.07861,"GlobalID":"241b4fbd-dc4f-48aa-a4b7-4c9bb932a281","local-authority-code":null},"id":134},{"arcs":[[408,-123,409,410,411]],"type":"Polygon","properties":{"CTYUA24CD":"E10000011","CTYUA24NM":"East Sussex","CTYUA24NMW":" ","BNG_E":564122,"BNG_N":117996,"LONG":0.334545,"LAT":50.93805,"GlobalID":"73c9ffb1-07fb-40ae-97f8-fe4ba911d9d4","local-authority-code":null},"id":136},{"arcs":[[412,-91,413,-94,-365,-392,-399,-344,414,-403,415]],"type":"Polygon","properties":{"CTYUA24CD":"E10000012","CTYUA24NM":"Essex","CTYUA24NMW":" ","BNG_E":575269,"BNG_N":215409,"LONG":0.541047,"LAT":51.80985,"GlobalID":"522c82f4-5237-4f66-8185-fa9214775b5d","local-authority-code":null},"id":137},{"arcs":[[416,417,-84,-159,-79,418,419,-60,420]],"type":"Polygon","properties":{"CTYUA24CD":"E10000013","CTYUA24NM":"Gloucestershire","CTYUA24NMW":" ","BNG_E":389595,"BNG_N":213466,"LONG":-2.15235,"LAT":51.81973,"GlobalID":"4a0d70b0-e012-4afc-b96c-1a570dae1f06","local-authority-code":null},"id":138},{"arcs":[[-115,-98,421,422,423,-127,424,-174,-177,-156,-103]],"type":"Polygon","properties":{"CTYUA24CD":"E10000014","CTYUA24NM":"Hampshire","CTYUA24NMW":" ","BNG_E":452857,"BNG_N":127536,"LONG":-1.24738,"LAT":51.04475,"GlobalID":"b2c69a56-e748-4960-8614-bfdcbb2402b6","local-authority-code":null},"id":139},{"arcs":[[-415,-347,-315,-362,-368,-181,-165,-88,-164,-404]],"type":"Polygon","properties":{"CTYUA24CD":"E10000015","CTYUA24NM":"Hertfordshire","CTYUA24NMW":" ","BNG_E":518880,"BNG_N":213639,"LONG":-0.27704,"LAT":51.80876,"GlobalID":"bbbf00d8-5e15-41d3-9a51-ae8f01f32122","local-authority-code":null},"id":140},{"arcs":[[[425,-95,426,-412,427,-326,-316]],[[428]]],"type":"MultiPolygon","properties":{"CTYUA24CD":"E10000016","CTYUA24NM":"Kent","CTYUA24NMW":" ","BNG_E":590249,"BNG_N":147268,"LONG":0.72137,"LAT":51.19296,"GlobalID":"983d9cf7-3e1a-43ae-9ece-99860d76ae60","local-authority-code":null},"id":141},{"arcs":[[-203,-292,-294,-226,-214,-33,-210,-234,-241,-238,-242,429,-35,430,-197]],"type":"Polygon","properties":{"CTYUA24CD":"E10000017","CTYUA24NM":"Lancashire","CTYUA24NMW":" ","BNG_E":369784,"BNG_N":440758,"LONG":-2.46092,"LAT":53.86217,"GlobalID":"8866305f-368b-4c8e-ad5f-3c30758c56f8","local-authority-code":null},"id":142},{"arcs":[[-56,-188,-191,431,432,-407,433,434],[-54]],"type":"Polygon","properties":{"CTYUA24CD":"E10000018","CTYUA24NM":"Leicestershire","CTYUA24NMW":" ","BNG_E":442147,"BNG_N":310191,"LONG":-1.37791,"LAT":52.68779,"GlobalID":"6639ddc0-6d33-4049-b984-40e92fc86a1f","local-authority-code":null},"id":143},{"arcs":[[435,436,-405,-87,-185,-57,-435,437,-48,-45]],"type":"Polygon","properties":{"CTYUA24CD":"E10000019","CTYUA24NM":"Lincolnshire","CTYUA24NMW":" ","BNG_E":517984,"BNG_N":358539,"LONG":-0.23884,"LAT":53.11102,"GlobalID":"3820f346-babb-4100-9c84-d4b2e12a7bef","local-authority-code":null},"id":144},{"arcs":[[438,-401,-437,439]],"type":"Polygon","properties":{"CTYUA24CD":"E10000020","CTYUA24NM":"Norfolk","CTYUA24NMW":" ","BNG_E":600549,"BNG_N":312292,"LONG":0.964714,"LAT":52.67124,"GlobalID":"3e81cd18-07ce-480a-949a-4f6e1314561e","local-authority-code":null},"id":145},{"arcs":[[-438,-434,-406,-254,-251,-49],[-58]],"type":"Polygon","properties":{"CTYUA24CD":"E10000024","CTYUA24NM":"Nottinghamshire","CTYUA24NMW":" ","BNG_E":466570,"BNG_N":359496,"LONG":-1.00656,"LAT":53.1285,"GlobalID":"99a3e01c-5864-4d5b-a64b-9be6bdd55d86","local-authority-code":null},"id":146},{"arcs":[[-189,-183,-116,-107,-105,-155,-82,-418,440]],"type":"Polygon","properties":{"CTYUA24CD":"E10000025","CTYUA24NM":"Oxfordshire","CTYUA24NMW":" ","BNG_E":448985,"BNG_N":208339,"LONG":-1.29147,"LAT":51.77159,"GlobalID":"985ce697-4430-446c-9265-00f222de975c","local-authority-code":null},"id":147},{"arcs":[[-433,441,-274,-287,-288,-279,442,-148,-65,-152,-138,-408],[-66]],"type":"Polygon","properties":{"CTYUA24CD":"E10000028","CTYUA24NM":"Staffordshire","CTYUA24NMW":" ","BNG_E":398242,"BNG_N":334649,"LONG":-2.02758,"LAT":52.90928,"GlobalID":"0e99bab0-6e6c-4101-bc44-649c3001fabd","local-authority-code":null},"id":148},{"arcs":[[443,-416,-402,-439]],"type":"Polygon","properties":{"CTYUA24CD":"E10000029","CTYUA24NM":"Suffolk","CTYUA24NMW":" ","BNG_E":608221,"BNG_N":266122,"LONG":1.049221,"LAT":52.25387,"GlobalID":"2908abb2-4783-4d39-a431-879de9062d83","local-authority-code":null},"id":149},{"arcs":[[-394,-375,-397,-336,-327,-428,-411,444,-422,-97,-112,-109,-367,-370]],"type":"Polygon","properties":{"CTYUA24CD":"E10000030","CTYUA24NM":"Surrey","CTYUA24NMW":" ","BNG_E":515966,"BNG_N":153408,"LONG":-0.33911,"LAT":51.26803,"GlobalID":"07aebb2e-5ba9-4e70-b276-899cc1021a8d","local-authority-code":null},"id":150},{"arcs":[[-190,-441,-417,445,-283,-276,-285,-268,-442,-432]],"type":"Polygon","properties":{"CTYUA24CD":"E10000031","CTYUA24NM":"Warwickshire","CTYUA24NMW":" ","BNG_E":429584,"BNG_N":253588,"LONG":-1.56875,"LAT":52.17977,"GlobalID":"c8bd06ef-425e-43b7-9879-2aa38a57fea8","local-authority-code":null},"id":151},{"arcs":[[-410,-125,446,-423,-445]],"type":"Polygon","properties":{"CTYUA24CD":"E10000032","CTYUA24NM":"West Sussex","CTYUA24NMW":" ","BNG_E":508315,"BNG_N":118008,"LONG":-0.45935,"LAT":50.95133,"GlobalID":"4e04814a-6ed4-4a89-87a5-2ecbfe64053b","local-authority-code":null},"id":152},{"arcs":[[-278,-270,-284,-446,-421,-59,-149,-443]],"type":"Polygon","properties":{"CTYUA24CD":"E10000034","CTYUA24NM":"Worcestershire","CTYUA24NMW":" ","BNG_E":385792,"BNG_N":257204,"LONG":-2.20936,"LAT":52.21288,"GlobalID":"5bd14e9e-f32f-491b-95b5-301b05e8b558","local-authority-code":null},"id":153},{"arcs":[[447,448,449,450,451]],"type":"Polygon","properties":{"CTYUA24CD":"S12000005","CTYUA24NM":"Clackmannanshire","CTYUA24NMW":" ","BNG_E":291178,"BNG_N":696402,"LONG":-3.75317,"LAT":56.14785,"GlobalID":"127f4111-b3fe-41dc-b68d-ceb27a237a7b","local-authority-code":null},"id":165},{"arcs":[[452,453,-194,454,455,456]],"type":"Polygon","properties":{"CTYUA24CD":"S12000006","CTYUA24NM":"Dumfries and Galloway","CTYUA24NMW":" ","BNG_E":270645,"BNG_N":579856,"LONG":-4.02863,"LAT":55.09621,"GlobalID":"b586fd67-d229-44af-a171-491f3d88565c","local-authority-code":null},"id":166},{"arcs":[[457,-457,458,459,460]],"type":"Polygon","properties":{"CTYUA24CD":"S12000008","CTYUA24NM":"East Ayrshire","CTYUA24NMW":" ","BNG_E":255398,"BNG_N":624935,"LONG":-4.29057,"LAT":55.49674,"GlobalID":"59a40b07-0f25-4d84-aa95-93603944e04d","local-authority-code":null},"id":167},{"arcs":[[461,462,463,464]],"type":"Polygon","properties":{"CTYUA24CD":"S12000010","CTYUA24NM":"East Lothian","CTYUA24NMW":" ","BNG_E":354854,"BNG_N":672351,"LONG":-2.72435,"LAT":55.94207,"GlobalID":"8b4ec43f-cea6-4ef5-aaee-41c78d91c5bc","local-authority-code":null},"id":168},{"arcs":[[465,-461,466,467,468]],"type":"Polygon","properties":{"CTYUA24CD":"S12000011","CTYUA24NM":"East Renfrewshire","CTYUA24NMW":" ","BNG_E":251930,"BNG_N":653115,"LONG":-4.36058,"LAT":55.74869,"GlobalID":"e642c01f-7b9a-4cdf-8262-2c9acbba1f46","local-authority-code":null},"id":169},{"arcs":[[[469]],[[470]],[[471]],[[472]],[[473]]],"type":"MultiPolygon","properties":{"CTYUA24CD":"S12000013","CTYUA24NM":"Na h-Eileanan Siar","CTYUA24NMW":" ","BNG_E":126473,"BNG_N":932862,"LONG":-6.65722,"LAT":58.19939,"GlobalID":"1c85e27f-3ea2-4cb9-a6bd-8be4f8ebc8a3","local-authority-code":null},"id":170},{"arcs":[[474,475,476,-450,477]],"type":"Polygon","properties":{"CTYUA24CD":"S12000014","CTYUA24NM":"Falkirk","CTYUA24NMW":" ","BNG_E":285585,"BNG_N":680170,"LONG":-3.83619,"LAT":56.00078,"GlobalID":"6d5ce1b2-ce90-4a1f-8025-9d2a10ac1f22","local-authority-code":null},"id":171},{"arcs":[[[478]],[[479]],[[480]],[[481,482,483,484,485,486,487]]],"type":"MultiPolygon","properties":{"CTYUA24CD":"S12000017","CTYUA24NM":"Highland","CTYUA24NMW":" ","BNG_E":241018,"BNG_N":858292,"LONG":-4.66104,"LAT":57.58657,"GlobalID":"23887556-635c-4524-84b7-add54ef4865f","local-authority-code":null},"id":172},{"arcs":[[488,489,490]],"type":"Polygon","properties":{"CTYUA24CD":"S12000018","CTYUA24NM":"Inverclyde","CTYUA24NMW":" ","BNG_E":227922,"BNG_N":670894,"LONG":-4.75387,"LAT":55.90031,"GlobalID":"6667f2c8-e3eb-49fa-a29d-5ced43b7ae44","local-authority-code":null},"id":173},{"arcs":[[491,492,-463]],"type":"Polygon","properties":{"CTYUA24CD":"S12000019","CTYUA24NM":"Midlothian","CTYUA24NMW":" ","BNG_E":330088,"BNG_N":659217,"LONG":-3.11738,"LAT":55.82112,"GlobalID":"435db057-8e3f-46fb-9bf5-cdc3e6938ad0","local-authority-code":null},"id":174},{"arcs":[[493,-482,494]],"type":"Polygon","properties":{"CTYUA24CD":"S12000020","CTYUA24NM":"Moray","CTYUA24NMW":" ","BNG_E":328015,"BNG_N":843590,"LONG":-3.20203,"LAT":57.47681,"GlobalID":"a04f7eca-64ba-48e7-ba5e-be80cbdd3308","local-authority-code":null},"id":175},{"arcs":[[[495,-467,-460,496,497,-490]],[[498]]],"type":"MultiPolygon","properties":{"CTYUA24CD":"S12000021","CTYUA24NM":"North Ayrshire","CTYUA24NMW":" ","BNG_E":228996,"BNG_N":651640,"LONG":-4.7246,"LAT":55.72789,"GlobalID":"5e4e34e0-a599-4c56-8adf-adad824a1f84","local-authority-code":null},"id":176},{"arcs":[[[499]],[[500]],[[501]]],"type":"MultiPolygon","properties":{"CTYUA24CD":"S12000023","CTYUA24NM":"Orkney Islands","CTYUA24NMW":" ","BNG_E":348293,"BNG_N":1006584,"LONG":-2.90025,"LAT":58.94334,"GlobalID":"fb0416c9-53c7-4029-860f-738a236b2142","local-authority-code":null},"id":177},{"arcs":[[-172,-195,-454,502,503,504,-492,-462,505]],"type":"Polygon","properties":{"CTYUA24CD":"S12000026","CTYUA24NM":"Scottish Borders","CTYUA24NMW":" ","BNG_E":345889,"BNG_N":626137,"LONG":-2.85869,"LAT":55.52596,"GlobalID":"bca573c0-ac18-424c-9aad-d894dc47cc43","local-authority-code":null},"id":178},{"arcs":[[[506]],[[507]],[[508]]],"type":"MultiPolygon","properties":{"CTYUA24CD":"S12000027","CTYUA24NM":"Shetland Islands","CTYUA24NMW":" ","BNG_E":434516,"BNG_N":1180307,"LONG":-1.37344,"LAT":60.50495,"GlobalID":"d22632a7-f70d-4656-9da1-297658391bc8","local-authority-code":null},"id":179},{"arcs":[[-456,509,-497,-459]],"type":"Polygon","properties":{"CTYUA24CD":"S12000028","CTYUA24NM":"South Ayrshire","CTYUA24NMW":" ","BNG_E":226545,"BNG_N":596271,"LONG":-4.729,"LAT":55.23009,"GlobalID":"747a4814-df8d-4e3e-ae46-7758540a2d41","local-authority-code":null},"id":180},{"arcs":[[510,511,-503,-453,-458,-466,512]],"type":"Polygon","properties":{"CTYUA24CD":"S12000029","CTYUA24NM":"South Lanarkshire","CTYUA24NMW":" ","BNG_E":284634,"BNG_N":636071,"LONG":-3.83272,"LAT":55.60453,"GlobalID":"e5fdce8b-2ebd-4700-82a4-3cb9dd71f79d","local-authority-code":null},"id":181},{"arcs":[[-451,-477,513,514,515,516,517]],"type":"Polygon","properties":{"CTYUA24CD":"S12000030","CTYUA24NM":"Stirling","CTYUA24NMW":" ","BNG_E":255980,"BNG_N":708769,"LONG":-4.32596,"LAT":56.24953,"GlobalID":"e9309603-7669-45c7-a8e6-e98218f46dda","local-authority-code":null},"id":182},{"arcs":[[518,519]],"type":"Polygon","properties":{"CTYUA24CD":"S12000033","CTYUA24NM":"Aberdeen City","CTYUA24NMW":" ","BNG_E":387763,"BNG_N":808479,"LONG":-2.20398,"LAT":57.16698,"GlobalID":"d7492a71-c3a2-4351-bb69-2e7b0f76e3e4","local-authority-code":null},"id":183},{"arcs":[[-520,520,521,522,-483,-494,523]],"type":"Polygon","properties":{"CTYUA24CD":"S12000034","CTYUA24NM":"Aberdeenshire","CTYUA24NMW":" ","BNG_E":352284,"BNG_N":816277,"LONG":-2.79209,"LAT":57.2347,"GlobalID":"cea16d60-7871-4e51-990a-a5f0aba3ea59","local-authority-code":null},"id":184},{"arcs":[[[-485,524,-517,525,526]],[[527,-487]],[[528]],[[529]],[[530]],[[531]],[[532]],[[533]],[[534]]],"type":"MultiPolygon","properties":{"CTYUA24CD":"S12000035","CTYUA24NM":"Argyll and Bute","CTYUA24NMW":" ","BNG_E":200740,"BNG_N":715443,"LONG":-5.22115,"LAT":56.28945,"GlobalID":"f2051235-b7fc-4eeb-9e2f-cce4bb83f0bc","local-authority-code":null},"id":185},{"arcs":[[-464,-493,-505,535,536]],"type":"Polygon","properties":{"CTYUA24CD":"S12000036","CTYUA24NM":"City of Edinburgh","CTYUA24NMW":" ","BNG_E":320193,"BNG_N":669417,"LONG":-3.27827,"LAT":55.9112,"GlobalID":"182da135-8c02-45f3-94f6-981cb1440355","local-authority-code":null},"id":186},{"arcs":[[537,-468,-496,-489,538,539]],"type":"Polygon","properties":{"CTYUA24CD":"S12000038","CTYUA24NM":"Renfrewshire","CTYUA24NMW":" ","BNG_E":239305,"BNG_N":664698,"LONG":-4.56834,"LAT":55.84863,"GlobalID":"27ae23f0-266e-4c1a-84d8-ad7372c00824","local-authority-code":null},"id":187},{"arcs":[[540,541,-540,542,-526,-516]],"type":"Polygon","properties":{"CTYUA24CD":"S12000039","CTYUA24NM":"West Dunbartonshire","CTYUA24NMW":" ","BNG_E":242904,"BNG_N":681586,"LONG":-4.52075,"LAT":56.0014,"GlobalID":"ff7621cb-af4d-4395-bfd2-a7c3054c3e57","local-authority-code":null},"id":188},{"arcs":[[-536,-504,-512,543,-475,544]],"type":"Polygon","properties":{"CTYUA24CD":"S12000040","CTYUA24NM":"West Lothian","CTYUA24NMW":" ","BNG_E":299483,"BNG_N":668514,"LONG":-3.6091,"LAT":55.89921,"GlobalID":"4fc00cb9-e37e-404d-acdd-3f8b6ce25822","local-authority-code":null},"id":189},{"arcs":[[545,546,547,-522]],"type":"Polygon","properties":{"CTYUA24CD":"S12000041","CTYUA24NM":"Angus","CTYUA24NMW":" ","BNG_E":345506,"BNG_N":759636,"LONG":-2.8921,"LAT":56.72518,"GlobalID":"46368d2d-07bd-4f1d-8349-d6c03b3884d7","local-authority-code":null},"id":190},{"arcs":[[548,549,-547]],"type":"Polygon","properties":{"CTYUA24CD":"S12000042","CTYUA24NM":"Dundee City","CTYUA24NMW":" ","BNG_E":340291,"BNG_N":732145,"LONG":-2.97095,"LAT":56.47761,"GlobalID":"c577af85-65b5-4e03-9526-3b4875f0741a","local-authority-code":null},"id":191},{"arcs":[[550,551,-541,-515]],"type":"Polygon","properties":{"CTYUA24CD":"S12000045","CTYUA24NM":"East Dunbartonshire","CTYUA24NMW":" ","BNG_E":261240,"BNG_N":676154,"LONG":-4.22418,"LAT":55.95829,"GlobalID":"8f4b9971-9568-46b4-9611-64eb0a134c30","local-authority-code":null},"id":192},{"arcs":[[-448,552,553]],"type":"Polygon","properties":{"CTYUA24CD":"S12000047","CTYUA24NM":"Fife","CTYUA24NMW":" ","BNG_E":339187,"BNG_N":704720,"LONG":-2.98251,"LAT":56.23112,"GlobalID":"c8221462-1e45-482e-a423-e97d8b85a594","local-authority-code":null},"id":193},{"arcs":[[-523,-548,-550,554,-553,-452,-518,-525,-484]],"type":"Polygon","properties":{"CTYUA24CD":"S12000048","CTYUA24NM":"Perth and Kinross","CTYUA24NMW":" ","BNG_E":284302,"BNG_N":744185,"LONG":-3.88484,"LAT":56.57528,"GlobalID":"1a2c7b7d-c4dd-4246-9d7c-e4d3f50ec233","local-authority-code":null},"id":194},{"arcs":[[555,-513,-469,-538,-542,-552]],"type":"Polygon","properties":{"CTYUA24CD":"S12000049","CTYUA24NM":"Glasgow City","CTYUA24NMW":" ","BNG_E":261534,"BNG_N":667033,"LONG":-4.2148,"LAT":55.87649,"GlobalID":"ff943b53-908a-493f-ab05-2621b1948399","local-authority-code":null},"id":195},{"arcs":[[-476,-544,-511,-556,-551,-514]],"type":"Polygon","properties":{"CTYUA24CD":"S12000050","CTYUA24NM":"North Lanarkshire","CTYUA24NMW":" ","BNG_E":277984,"BNG_N":665608,"LONG":-3.9514,"LAT":55.86814,"GlobalID":"007ef224-736d-4ad2-b318-79552290942f","local-authority-code":null},"id":196},{"arcs":[[556]],"type":"Polygon","properties":{"CTYUA24CD":"W06000001","CTYUA24NM":"Isle of Anglesey","CTYUA24NMW":"Ynys Môn","BNG_E":245217,"BNG_N":378331,"LONG":-4.32298,"LAT":53.27931,"GlobalID":"da869837-8ab2-4742-971b-873ad970477f","local-authority-code":null},"id":197},{"arcs":[[557,558,559,560,561]],"type":"Polygon","properties":{"CTYUA24CD":"W06000002","CTYUA24NM":"Gwynedd","CTYUA24NMW":"Gwynedd","BNG_E":280555,"BNG_N":334966,"LONG":-3.77716,"LAT":52.89884,"GlobalID":"41af3c45-928b-4919-bfc1-b02f44cf168b","local-authority-code":null},"id":198},{"arcs":[[562,-562,563]],"type":"Polygon","properties":{"CTYUA24CD":"W06000003","CTYUA24NM":"Conwy","CTYUA24NMW":"Conwy","BNG_E":283293,"BNG_N":362563,"LONG":-3.74646,"LAT":53.1474,"GlobalID":"499fe889-f873-4881-907e-6aaf0cc31e85","local-authority-code":null},"id":199},{"arcs":[[564,565,-558,-563,566,567]],"type":"Polygon","properties":{"CTYUA24CD":"W06000004","CTYUA24NM":"Denbighshire","CTYUA24NMW":"Sir Ddinbych","BNG_E":309843,"BNG_N":355416,"LONG":-3.34761,"LAT":53.08833,"GlobalID":"6ca7dea4-103b-4ef7-b457-170fd23bd93a","local-authority-code":null},"id":200},{"arcs":[[-144,568,-568,569]],"type":"Polygon","properties":{"CTYUA24CD":"W06000005","CTYUA24NM":"Flintshire","CTYUA24NMW":"Sir y Fflint","BNG_E":321134,"BNG_N":369280,"LONG":-3.18248,"LAT":53.21472,"GlobalID":"c2f76fcf-29a9-48ea-9699-f3473e0f7d45","local-authority-code":null},"id":201},{"arcs":[[-151,570,-565,-569,-143]],"type":"Polygon","properties":{"CTYUA24CD":"W06000006","CTYUA24NM":"Wrexham","CTYUA24NMW":"Wrecsam","BNG_E":333523,"BNG_N":345387,"LONG":-2.99203,"LAT":53.00167,"GlobalID":"93fb1fe0-d8e8-45a6-bd7e-55a9fe12e3b1","local-authority-code":null},"id":202},{"arcs":[[571,572,573,-560,574]],"type":"Polygon","properties":{"CTYUA24CD":"W06000008","CTYUA24NM":"Ceredigion","CTYUA24NMW":"Ceredigion","BNG_E":267127,"BNG_N":268437,"LONG":-3.94993,"LAT":52.29795,"GlobalID":"c05fd4dc-cdd2-4204-a1e4-77e974aef749","local-authority-code":null},"id":203},{"arcs":[[-573,575,576]],"type":"Polygon","properties":{"CTYUA24CD":"W06000009","CTYUA24NM":"Pembrokeshire","CTYUA24NMW":"Sir Benfro","BNG_E":199821,"BNG_N":221392,"LONG":-4.90818,"LAT":51.85514,"GlobalID":"31db2a2a-17a3-4c0d-af4b-f9d89249bad3","local-authority-code":null},"id":204},{"arcs":[[577,578,579,580,-576,-572]],"type":"Polygon","properties":{"CTYUA24CD":"W06000010","CTYUA24NM":"Carmarthenshire","CTYUA24NMW":"Sir Gaerfyrddin","BNG_E":247955,"BNG_N":224133,"LONG":-4.21109,"LAT":51.89496,"GlobalID":"7e13638f-71f8-49cc-aaad-5161badcce1a","local-authority-code":null},"id":205},{"arcs":[[581,582,-580]],"type":"Polygon","properties":{"CTYUA24CD":"W06000011","CTYUA24NM":"Swansea","CTYUA24NMW":"Abertawe","BNG_E":264022,"BNG_N":197308,"LONG":-3.96723,"LAT":51.65807,"GlobalID":"653e4fd4-a0df-4319-badf-fecea856bac7","local-authority-code":null},"id":206},{"arcs":[[583,584,585,586,-582,-579]],"type":"Polygon","properties":{"CTYUA24CD":"W06000012","CTYUA24NM":"Neath Port Talbot","CTYUA24NMW":"Castell-nedd Port Talbot","BNG_E":279261,"BNG_N":195412,"LONG":-3.74638,"LAT":51.64451,"GlobalID":"1489a559-1381-4613-b815-6dce57af96c1","local-authority-code":null},"id":207},{"arcs":[[587,588,-586,589]],"type":"Polygon","properties":{"CTYUA24CD":"W06000013","CTYUA24NM":"Bridgend","CTYUA24NMW":"Pen-y-bont ar Ogwr","BNG_E":288231,"BNG_N":185870,"LONG":-3.61376,"LAT":51.5606,"GlobalID":"48e30806-4f7a-46d0-b029-accf0e1e5766","local-authority-code":null},"id":208},{"arcs":[[590,591,-588,592]],"type":"Polygon","properties":{"CTYUA24CD":"W06000014","CTYUA24NM":"Vale of Glamorgan","CTYUA24NMW":"Bro Morgannwg","BNG_E":302947,"BNG_N":173080,"LONG":-3.39802,"LAT":51.44836,"GlobalID":"08ef0942-58af-4e78-bb63-f98c5830b635","local-authority-code":null},"id":209},{"arcs":[[593,594,-591,595,596]],"type":"Polygon","properties":{"CTYUA24CD":"W06000015","CTYUA24NM":"Cardiff","CTYUA24NMW":"Caerdydd","BNG_E":315272,"BNG_N":178887,"LONG":-3.22209,"LAT":51.50254,"GlobalID":"41b16816-d021-4129-8528-2b8b7091687c","local-authority-code":null},"id":210},{"arcs":[[597,598,-596,-593,-590,-585,599]],"type":"Polygon","properties":{"CTYUA24CD":"W06000016","CTYUA24NM":"Rhondda Cynon Taf","CTYUA24NMW":"Rhondda Cynon Taf","BNG_E":302237,"BNG_N":192395,"LONG":-3.4136,"LAT":51.62186,"GlobalID":"38dc0d8c-667f-4503-9ea8-b6b56b2efc4d","local-authority-code":null},"id":211},{"arcs":[[600,601,-597,-599,602,603,604]],"type":"Polygon","properties":{"CTYUA24CD":"W06000018","CTYUA24NM":"Caerphilly","CTYUA24NMW":"Caerffili","BNG_E":317245,"BNG_N":195259,"LONG":-3.19754,"LAT":51.65001,"GlobalID":"985f3f9f-7ae8-4411-9a42-ba10b2e3edb5","local-authority-code":null},"id":212},{"arcs":[[605,606,-605,607]],"type":"Polygon","properties":{"CTYUA24CD":"W06000019","CTYUA24NM":"Blaenau Gwent","CTYUA24NMW":"Blaenau Gwent","BNG_E":318236,"BNG_N":206771,"LONG":-3.18592,"LAT":51.75364,"GlobalID":"b2830cbe-9557-4573-bd8a-670c4611041e","local-authority-code":null},"id":213},{"arcs":[[608,-601,-607,609]],"type":"Polygon","properties":{"CTYUA24CD":"W06000020","CTYUA24NM":"Torfaen","CTYUA24NMW":"Torfaen","BNG_E":327459,"BNG_N":200480,"LONG":-3.05102,"LAT":51.69836,"GlobalID":"437c7a6f-6c45-44e6-a433-457c66187b75","local-authority-code":null},"id":214},{"arcs":[[-420,610,611,-610,-606,612,-61]],"type":"Polygon","properties":{"CTYUA24CD":"W06000021","CTYUA24NM":"Monmouthshire","CTYUA24NMW":"Sir Fynwy","BNG_E":337812,"BNG_N":209231,"LONG":-2.90281,"LAT":51.77828,"GlobalID":"cdf89f1a-1750-4553-995a-b63a9bf21098","local-authority-code":null},"id":215},{"arcs":[[613,-594,-602,-609,-612]],"type":"Polygon","properties":{"CTYUA24CD":"W06000022","CTYUA24NM":"Newport","CTYUA24NMW":"Casnewydd","BNG_E":337897,"BNG_N":187432,"LONG":-2.89769,"LAT":51.58231,"GlobalID":"8ff38fd6-7998-46cf-b0cc-86d9bb1a2394","local-authority-code":null},"id":216},{"arcs":[[-150,-62,-613,-608,-604,614,-600,-584,-578,-575,-559,-566,-571]],"type":"Polygon","properties":{"CTYUA24CD":"W06000023","CTYUA24NM":"Powys","CTYUA24NMW":"Powys","BNG_E":302329,"BNG_N":273254,"LONG":-3.43532,"LAT":52.34864,"GlobalID":"af5e5479-f6a9-47f2-a060-e378e859a03a","local-authority-code":null},"id":217},{"arcs":[[-603,-598,-615]],"type":"Polygon","properties":{"CTYUA24CD":"W06000024","CTYUA24NM":"Merthyr Tydfil","CTYUA24NMW":"Merthyr Tudful","BNG_E":305916,"BNG_N":206404,"LONG":-3.36425,"LAT":51.74841,"GlobalID":"218d173e-58bf-4daf-abad-bbd35e938cf0","local-authority-code":null},"id":218},{"arcs":[[615]],"type":"Polygon","properties":{"local-authority-code":"DFI"}},{"arcs":[[616,-81,617,-153,618,-205,-179,619]],"type":"Polygon","properties":{"local-authority-code":"DVT"}},{"arcs":[[620]],"type":"Polygon","properties":{"LAD24CD":"E06000044","LAD24NM":"Portsmouth","LAD24NMW":" ","BNG_E":465619,"BNG_N":101352,"LONG":-1.07006,"LAT":50.808,"GlobalID":"1d9ed475-b7f2-4fd2-8f05-b406f44d8a1c"},"id":42}]}}}